{"type": "FeatureCollection", "features": [{"type": "Feature", "id": 1, "geometry": {"type": "MultiPolygon", "coordinates": [[[[46.59637145021112, 24.73982473018239], [46.59625859220019, 24.739772678548608], [46.59625278292596, 24.739783060699718], [46.596230524267, 24.739773465066143], [46.59623559111019, 24.73976300956121], [46.596070217317404, 24.7396932873187], [46.59606437240857, 24.73970397683247], [46.59590946347776, 24.739640815474864], [46.59590272781222, 24.739653753688646], [46.595861274771096, 24.73963691065846], [46.595870138130884, 24.73961941085393], [46.59581742066997, 24.73959756192768], [46.595809745360455, 24.739613643245928], [46.59578400869087, 24.739603353218058], [46.595795974910764, 24.739579614668166], [46.59559462223055, 24.739495015761023], [46.595378732667996, 24.739403916856283], [46.595368005605906, 24.73942404859665], [46.59534087406162, 24.739412987804336], [46.59535196146602, 24.739392427861528], [46.59516942966705, 24.739314508201023], [46.59490687854463, 24.739199580775466], [46.59486812236998, 24.739261508586218], [46.59505392733495, 24.739344152135025], [46.5952995744691, 24.739449137576152], [46.59559868549105, 24.739575557364326], [46.595868695455565, 24.73968916710254], [46.59615323342932, 24.739808517619142], [46.59641340996469, 24.73991847494831], [46.596702885014736, 24.740040354111894], [46.596715603028834, 24.74002130262398], [46.59660439652246, 24.7399507330175], [46.59655976177733, 24.739923904477678], [46.59650690811228, 24.739893732413535], [46.596466990480955, 24.739871639024877], [46.596417092737404, 24.739846094462294], [46.59637145021112, 24.73982473018239]]], [[[46.601750680785855, 24.741459744583906], [46.60157107781961, 24.741384077056093], [46.601343331465436, 24.741288018668058], [46.60110997236597, 24.74118976802633], [46.60088140472394, 24.74109452849253], [46.60087642012286, 24.74109084459451], [46.60065947354253, 24.740999148189143], [46.60051059240685, 24.7409372736169], [46.6004131338331, 24.74089677151368], [46.60034167324411, 24.740867072240572], [46.600339308266285, 24.740870772339065], [46.6003292925295, 24.740866870370517], [46.60033153127858, 24.740862423107604], [46.6002565952735, 24.74083046209484], [46.60025435420514, 24.740834651149207], [46.60024447282299, 24.74083043172157], [46.60024633960678, 24.74082642995465], [46.59999505144633, 24.740719740732477], [46.59969981016617, 24.74059502231323], [46.599436275515096, 24.740483403825394], [46.59922633261705, 24.740395023644414], [46.59898980526779, 24.74029500837605], [46.59822218922508, 24.739970935071987], [46.59820487190492, 24.739963595787756], [46.5979418404505, 24.739853319943165], [46.59769666178474, 24.73975024543084], [46.59743476431818, 24.739640597634843], [46.59729078925302, 24.73958005430158], [46.596471579722156, 24.739235464700503], [46.59645261760258, 24.739227516104858], [46.59621227561453, 24.73912519835041], [46.59598077469894, 24.73902567897549], [46.595752320582584, 24.738924409448853], [46.59570926575282, 24.73890559611068], [46.59563230629424, 24.738871390625857], [46.595556974186714, 24.738837184027474], [46.5954790150093, 24.738801020755528], [46.595427801555545, 24.738776836082458], [46.59534978881166, 24.738739336097865], [46.59531091413931, 24.73871990389221], [46.595269110855405, 24.738698981441512], [46.595215597788076, 24.738672155773457], [46.59517678377598, 24.73865267051664], [46.5951096356758, 24.738618904780544], [46.595102453390545, 24.73861528469909], [46.595100733132554, 24.7386187710919], [46.595096687389834, 24.73862697015269], [46.595092641635084, 24.73863516831061], [46.595089213646155, 24.73864211568116], [46.595088595891355, 24.73864336737121], [46.59508455014712, 24.73865156643171], [46.595080504402375, 24.738659765492145], [46.59507645864561, 24.73866796364969], [46.595075767663864, 24.738669365099476], [46.595079011121314, 24.738671045210168], [46.595085360699336, 24.738674334660015], [46.59518961614784, 24.738728337900326], [46.59523856528225, 24.738753433417873], [46.59528956217288, 24.738779167150586], [46.59531242098169, 24.738790566885136], [46.59534379016494, 24.738806075470595], [46.59538558015972, 24.73882649511787], [46.59541313584475, 24.738839348187213], [46.595439473973194, 24.738851695038004], [46.59548412554275, 24.738872764087116], [46.59551606993704, 24.738887945074723], [46.59555462556381, 24.73890638651409], [46.59559505343188, 24.73892503825333], [46.59564588311779, 24.738948427874007], [46.59567924004683, 24.738963740961097], [46.59571861510937, 24.738981779059465], [46.59576078904946, 24.739001055034425], [46.59578841344393, 24.739013631008834], [46.59617297094835, 24.739185618131934], [46.59621745448324, 24.739205432791543], [46.59634764286158, 24.739261335905113], [46.59637892794436, 24.73924778946901], [46.596582258117216, 24.739332861048084], [46.596865232625156, 24.73945119123819], [46.5971896890523, 24.739589347352055], [46.59719496748694, 24.739619058274517], [46.59750211348296, 24.739745938407864], [46.59785216721245, 24.739904855289446], [46.59795097742008, 24.73995005159169], [46.598138096338424, 24.7400356396249], [46.59826594652751, 24.740094118458227], [46.59827074370555, 24.740085550141732], [46.59827996858683, 24.7400908592963], [46.59827534463888, 24.74009828448643], [46.59847921390782, 24.740186654083825], [46.59871736092878, 24.740288975193028], [46.59872205111643, 24.7402808558482], [46.59872895419754, 24.740283888222166], [46.59872455930539, 24.740292214795296], [46.59902104626847, 24.740417134102845], [46.59931175945938, 24.740539848107435], [46.59961530644665, 24.74066846049674], [46.59962066790067, 24.74065887395506], [46.599627415423676, 24.740661953994532], [46.599622358287064, 24.74067098470714], [46.59963633524964, 24.740676869671546], [46.599894995375315, 24.74078578594288], [46.599965884311544, 24.740815635101228], [46.60007912252541, 24.740864145784943], [46.60031827163926, 24.740964461716672], [46.60059398855494, 24.74108064269379], [46.60060033914338, 24.74106955304538], [46.60060777659846, 24.741072385495947], [46.600602822907646, 24.741084317086994], [46.60069478722807, 24.741123396968916], [46.601041225468144, 24.741251078705716], [46.60106981122942, 24.7412613680578], [46.60131437982477, 24.741351347513245], [46.60141938832161, 24.741389981466252], [46.60149524586707, 24.741417889694848], [46.60150281562308, 24.741400797079603], [46.60153091013655, 24.741410936289764], [46.601523585748446, 24.74142788813896], [46.60173101656673, 24.74150414405604], [46.60231947911434, 24.74172065718183], [46.602328150633134, 24.74170352475906], [46.601750680785855, 24.741459744583906]]], [[[46.60314476000822, 24.74264590862439], [46.60302387487019, 24.74259526283017], [46.60301723469436, 24.74260866079858], [46.60299032098567, 24.74259688040554], [46.60299708371457, 24.7425837872135], [46.60257600544391, 24.742406604677136], [46.60256945328915, 24.742420008006576], [46.60254128008013, 24.74240861299675], [46.60254821962422, 24.742394733304245], [46.60234075731561, 24.742307382187214], [46.60212546741194, 24.742216366476644], [46.6021191173533, 24.74222926470707], [46.60209216877474, 24.742217836652845], [46.60209881002632, 24.742205287445106], [46.601883798459994, 24.742114439949017], [46.60167728118991, 24.74202739378911], [46.60167052671556, 24.74204036855736], [46.601643316817025, 24.742028833056747], [46.6016494465457, 24.742015711472007], [46.601437656488734, 24.74192685229752], [46.60121769706143, 24.741833961926027], [46.60121275939135, 24.74184366859422], [46.60118749011417, 24.74183373570406], [46.601192523427976, 24.7418230826682], [46.60096160891209, 24.741725334822963], [46.60066225551582, 24.741598927889385], [46.60065810468788, 24.741606773365564], [46.600500609738276, 24.741541135393426], [46.60049021719578, 24.741559465300696], [46.6004656556036, 24.741548581184965], [46.60047527411671, 24.741530645088147], [46.60039419544607, 24.741496553888055], [46.60039268276921, 24.741500491380226], [46.60038306160173, 24.74149690934873], [46.6003850407431, 24.741492493750464], [46.60036484231349, 24.741483781473043], [46.600331170373664, 24.741488592392688], [46.600123539828665, 24.741401075538395], [46.59983891850162, 24.74128040649799], [46.59945194799319, 24.741116817801515], [46.599424744958, 24.74107704599448], [46.599162526297285, 24.74096572903598], [46.598848578425226, 24.740833424549468], [46.59884408705897, 24.7408417070097], [46.598694936618834, 24.740779182461907], [46.59868002321081, 24.740807448253282], [46.59865490103946, 24.740796695311776], [46.59866906245091, 24.740768381563992], [46.59854225896917, 24.74071443268776], [46.59851141415732, 24.740719971482704], [46.59839701653121, 24.74067220330621], [46.59837327739882, 24.740634068341134], [46.59836916751984, 24.74063144046125], [46.598224896530624, 24.740571073709145], [46.598027050438596, 24.740487244408175], [46.59781183498969, 24.740397324787036], [46.59758641215748, 24.740302321915248], [46.59735765233497, 24.740205494259403], [46.59716091386365, 24.740123304285817], [46.59715532339334, 24.74013293201243], [46.59714664234203, 24.740128785358237], [46.59715083182852, 24.740119231251363], [46.59708052878352, 24.740089272442546], [46.596827564288155, 24.73998277075607], [46.59681154456434, 24.740005104300053], [46.59690217658088, 24.740063170052128], [46.59701515365156, 24.74012821460638], [46.59712567124789, 24.740181746076317], [46.5972296366235, 24.740225494725347], [46.59747018161659, 24.740327144912044], [46.59769345475404, 24.74042173748021], [46.59793154100848, 24.740522021719368], [46.598134938549975, 24.740624184240335], [46.59835973527558, 24.7407372583575], [46.59836028398212, 24.740737489970936], [46.598361406247044, 24.740737963767714], [46.59856385245798, 24.74082343378068], [46.59881979814777, 24.74093149964601], [46.59906434956743, 24.74103467547904], [46.599301707535936, 24.74113489388229], [46.59954302016581, 24.741236703951376], [46.59979499875957, 24.741342282269922], [46.6000413837994, 24.741447161422077], [46.60029645091413, 24.741554367239466], [46.60048889476893, 24.74163585928831], [46.60049580531237, 24.74162356008444], [46.60052183082061, 24.74163503621833], [46.60051632308017, 24.741647402606343], [46.60081706369493, 24.741774976923065], [46.60104731180504, 24.741871873443877], [46.60126536504838, 24.741964457581922], [46.60151495022182, 24.742068902729013], [46.60176764272333, 24.742175083932363], [46.60199258587525, 24.74226988671285], [46.60199332243607, 24.74227019485738], [46.601993709097115, 24.742270355956432], [46.602208878915036, 24.742360178590733], [46.602209155876174, 24.74236026592056], [46.60236164897474, 24.742408088723515], [46.60236285249379, 24.742408343116107], [46.60252620645929, 24.74245856421891], [46.60269802517307, 24.742531031681825], [46.60288328599195, 24.742609111208814], [46.603111727150484, 24.742705645427634], [46.60314476000822, 24.74264590862439]]], [[[46.6035775311546, 24.742828342095592], [46.60347336169849, 24.7427849686143], [46.603466557372926, 24.7427978988445], [46.60343939070089, 24.74278659797846], [46.6034456681264, 24.742773364592217], [46.6034050133315, 24.742755472338008], [46.60340366074094, 24.74275793279062], [46.60323413388079, 24.742686682246394], [46.6032039973188, 24.74274460122564], [46.60336059456029, 24.742808785827766], [46.60346203181138, 24.74284464842966], [46.60355608625616, 24.742872160402754], [46.6035775311546, 24.742828342095592]]], [[[46.60566281192495, 24.743145610077317], [46.605431197818376, 24.74304779651645], [46.60518401712089, 24.742943892167684], [46.60494753885626, 24.742841877228884], [46.6049472131211, 24.74284422827973], [46.60494587144832, 24.742845226819174], [46.6048784654924, 24.742816466037528], [46.604880109668834, 24.742813309016253], [46.60466496027341, 24.742724581732066], [46.60435678526742, 24.742594964135105], [46.60410529741091, 24.742488115411177], [46.60383413279692, 24.742373756059266], [46.60380310560758, 24.742435128373685], [46.60381591001112, 24.742440522559434], [46.604097374959785, 24.742559282615474], [46.604104017063435, 24.74254681457929], [46.6041290358054, 24.742557073787356], [46.60412300296161, 24.742570021970742], [46.604345991155895, 24.74266376847863], [46.60454671837338, 24.742748571314863], [46.6045533930277, 24.742735561166672], [46.604578247705405, 24.742746127236238], [46.60457206138158, 24.742759439145665], [46.604803274999476, 24.742856952290264], [46.604995371480356, 24.742937972543217], [46.605002321350696, 24.742925609523315], [46.60502733393201, 24.742936147639504], [46.60502091576156, 24.742949109914502], [46.60528076306628, 24.743058224972344], [46.6054422752968, 24.743127247546376], [46.605448797060916, 24.743115348674145], [46.60547419142732, 24.743125739059803], [46.60546815857095, 24.7431378304321], [46.605629946361354, 24.743206199748514], [46.60566281192495, 24.743145610077317]]], [[[46.60384588574634, 24.743004954108976], [46.60375653238496, 24.742984457276336], [46.603743953602226, 24.743008130728164], [46.60404784635734, 24.743137614820082], [46.604303583078405, 24.743245709254243], [46.60453027925405, 24.743341229673067], [46.60476150476826, 24.743438353552513], [46.604994217248226, 24.74353652656532], [46.60520330845323, 24.743625318196578], [46.60542434570081, 24.74371814394904], [46.60546834301812, 24.74362660525201], [46.60539592243363, 24.74359665514752], [46.60537890373852, 24.743590158656296], [46.60537775065995, 24.743589752962627], [46.60492098481205, 24.743432564480425], [46.60465884935117, 24.7433213072457], [46.604381594122344, 24.74320363823253], [46.60404335914246, 24.743063001322632], [46.60401813927053, 24.743053871990604], [46.60398733394402, 24.743043249435058], [46.60384588574634, 24.743004954108976]]], [[[46.60881721706451, 24.74448443218735], [46.608595049481096, 24.744381655645398], [46.60840654764999, 24.74430195688938], [46.608160379102706, 24.744198326706968], [46.60814127393439, 24.744236308483845], [46.6081409795121, 24.744236785669887], [46.608373255786596, 24.74433379318508], [46.60836062811183, 24.74435821692929], [46.60858464374915, 24.744452344905252], [46.60859116243632, 24.744438766532667], [46.60861596393372, 24.744448683282936], [46.60860845765639, 24.74446227045228], [46.609034026568786, 24.74464221413971], [46.609056139038415, 24.744597237649984], [46.60881721706451, 24.74448443218735]]], [[[46.60909548607571, 24.744615815017774], [46.609079308575794, 24.74460817677996], [46.609058175808265, 24.744651763110713], [46.6094077721082, 24.744799277314605], [46.609422420143034, 24.744773059383864], [46.60931309323014, 24.744720635182823], [46.60909548607571, 24.744615815017774]]], [[[46.608448445982845, 24.74488328649745], [46.608405818172116, 24.744865225423837], [46.60839868895581, 24.74487976652136], [46.60837222902559, 24.744869594860923], [46.608380164797985, 24.74485472908987], [46.60815938011802, 24.744761869056372], [46.60795759412003, 24.744676353124767], [46.607950144803524, 24.74469060870738], [46.60792419539635, 24.744680151584955], [46.60793052636515, 24.744665808683976], [46.60770465594312, 24.74457029379974], [46.6075084100187, 24.74448730011325], [46.607500558253555, 24.74450178571958], [46.607472564840165, 24.744489987051914], [46.60747938885556, 24.744475539559122], [46.607372560161956, 24.74442940022728], [46.60732690639927, 24.74452043351151], [46.60750305341296, 24.744594306985512], [46.60773312032125, 24.74469170937602], [46.60794425769884, 24.744780944569325], [46.60818481930392, 24.7448824953449], [46.608403179347064, 24.7449743881573], [46.608448445982845, 24.74488328649745]]], [[[46.60996215612828, 24.745521376488114], [46.609752956924275, 24.745433595173903], [46.609745326810526, 24.745449459954646], [46.609715869102686, 24.745437614251887], [46.60972399082696, 24.745421843511085], [46.609535734125735, 24.745342161703757], [46.609527111236886, 24.74535817257417], [46.60950164631762, 24.745347737620108], [46.60950999497169, 24.74533116086524], [46.60930298772439, 24.745244176996003], [46.609294422144515, 24.745260801215434], [46.60926758374838, 24.745248891173887], [46.60927545791798, 24.745232319526625], [46.60908401266031, 24.745152210887223], [46.60885582861586, 24.7450552870379], [46.608846777667594, 24.745071076741517], [46.60882004262376, 24.7450595086112], [46.608827681674, 24.74504386950395], [46.608716285358184, 24.744997048858817], [46.60866923006832, 24.745086670968178], [46.608859861687726, 24.74516734869161], [46.60911925215468, 24.745276009286478], [46.60939449180446, 24.74539233641996], [46.6096411209046, 24.745496537335555], [46.609911058694415, 24.74561030200023], [46.60996215612828, 24.745521376488114]]], [[[46.61192961139051, 24.745753435874093], [46.611710654181124, 24.745661527709125], [46.61147733600769, 24.745562306617433], [46.61123791733193, 24.745461507453182], [46.6109923426896, 24.74535789380048], [46.61075094669769, 24.74525627537837], [46.61050507160201, 24.745152302958264], [46.610262316804054, 24.745051059480478], [46.61025059891538, 24.74507317118118], [46.61051714287118, 24.74519981057649], [46.61076315086739, 24.745317921060852], [46.61106750998632, 24.745463448043044], [46.611073375798064, 24.74545292931905], [46.61108039243012, 24.745456519679298], [46.61107443625139, 24.74546693102637], [46.611309581323326, 24.745579053713065], [46.61152201766814, 24.74568054924597], [46.61152678490089, 24.745673012882328], [46.61154019051801, 24.745679053616893], [46.61153595677237, 24.74568732462662], [46.61165670418233, 24.745743830030573], [46.61176907635927, 24.745794890604113], [46.61211916161237, 24.74594395948108], [46.61237768602223, 24.74603957656597], [46.612457293646315, 24.74604777607539], [46.61268903886902, 24.74613377589381], [46.6126815476265, 24.746150108826107], [46.61276477076681, 24.746181040543593], [46.61279532994952, 24.74611885354348], [46.61263056021529, 24.746048990359064], [46.612416681908606, 24.745959222673395], [46.61216782170149, 24.745853985041588], [46.61192961139051, 24.745753435874093]]], [[[46.595125889232456, 24.738980351599107], [46.59495907014957, 24.738905862520674], [46.59495508991531, 24.738913928152893], [46.594951044154406, 24.738922127210408], [46.59494737328641, 24.738929566541035], [46.594943702418, 24.738937005871563], [46.59494003154918, 24.738944445202034], [46.594936360679945, 24.738951884532423], [46.594932689810285, 24.738959323862744], [46.59492901894021, 24.738966763192973], [46.59492858910615, 24.738967633659662], [46.59503576043003, 24.739015991662225], [46.59520107068459, 24.73908867282411], [46.595318316943434, 24.739138992855086], [46.596197874742, 24.739511695806115], [46.59621322768668, 24.739518203903234], [46.59689798637232, 24.739805830831855], [46.59747133056072, 24.740047030708308], [46.599059420846835, 24.740715872456196], [46.599145319152036, 24.740752107061947], [46.60042080428277, 24.741290134466553], [46.600466926786005, 24.74130958990191], [46.601514468986366, 24.741751176672338], [46.602886846143065, 24.742330106691636], [46.604014632670754, 24.742805911169558], [46.60513487751167, 24.743278529867705], [46.60608274431977, 24.743678652795268], [46.60721742068392, 24.744157366737], [46.607705215061245, 24.74436297751065], [46.609173455330385, 24.744982439284115], [46.61060281310047, 24.745585023229605], [46.611147028597465, 24.74581454781671], [46.61150957444426, 24.74596772331186], [46.6115790707143, 24.745997022802054], [46.612668231508835, 24.74645631468341], [46.612832059627, 24.7465254159512], [46.613724305999334, 24.746901453061053], [46.614411265469684, 24.74719122092248], [46.61494611083836, 24.747416787032986], [46.615633410393876, 24.747706281725442], [46.61609470829753, 24.747900513026075], [46.616484029723445, 24.748065091496684], [46.61665020885647, 24.748135316950066], [46.61668138075636, 24.748073533440557], [46.616622277295754, 24.748048564773573], [46.61639777688466, 24.74795351467604], [46.61613354687299, 24.74784185765746], [46.61604164413146, 24.747803606857403], [46.61586085743765, 24.74772741653193], [46.615670266689534, 24.747646703405234], [46.614509966228276, 24.747157734115117], [46.614483570514004, 24.747146636504343], [46.61430912060489, 24.747073145154634], [46.61424971223959, 24.747047846525383], [46.6141477105876, 24.747005054250195], [46.61392144305326, 24.74690954709207], [46.61368120479472, 24.746808789756056], [46.61342599641294, 24.74670034154446], [46.613181748946154, 24.746597150774203], [46.613141693244785, 24.746580369917183], [46.61164023161553, 24.745947465397077], [46.61149338491154, 24.745885496386865], [46.6112947786821, 24.745801979763666], [46.61088255230851, 24.745628178193456], [46.61063231461723, 24.745522089555923], [46.610340593244516, 24.745399108684726], [46.61007352117007, 24.745286368592563], [46.609852385812744, 24.745193374959435], [46.60974486732591, 24.745148138672903], [46.608114808314895, 24.744460800680326], [46.608068418463986, 24.744441260281047], [46.60760012181454, 24.744243379922434], [46.6072412866551, 24.74409232171317], [46.60688638881446, 24.74394268670817], [46.60646020389589, 24.74376317668013], [46.60609449558752, 24.743608465690862], [46.6059813981935, 24.743560736563786], [46.604131646034695, 24.742780475148145], [46.60385748358118, 24.74266500036166], [46.603441054352054, 24.742489256751853], [46.60309137023073, 24.74234182016473], [46.602687356347786, 24.742171197389734], [46.60227107295536, 24.74199524476616], [46.601966871161565, 24.74186690596058], [46.60093001248877, 24.741429904371422], [46.60084768914335, 24.741395126960015], [46.600609209905635, 24.74129456369759], [46.60037967851613, 24.741197475495685], [46.600087885035066, 24.741074674988557], [46.59984078036157, 24.740969826135384], [46.59964125684144, 24.740886073830126], [46.59948032343848, 24.74081886785383], [46.59922622604325, 24.74071086105698], [46.598916665738564, 24.740580122465], [46.59878311449807, 24.740523760968916], [46.5973935474706, 24.739938794447333], [46.59709081535168, 24.73981136415106], [46.596830998654674, 24.73970251205062], [46.59661211794585, 24.739610154780273], [46.59633075352237, 24.739491647154104], [46.59607782499302, 24.739385496774826], [46.595819488998636, 24.7392764094726], [46.59561921918085, 24.739192181881066], [46.59540870901578, 24.739103530401923], [46.595125889232456, 24.738980351599107]]], [[[46.624560194317105, 24.751078436871833], [46.62048042738603, 24.74935868757977], [46.620465526484445, 24.749382110240777], [46.62086396833993, 24.74959671012147], [46.62108548779194, 24.74971011714031], [46.62136081597084, 24.749838496735144], [46.62235381482431, 24.750257421760104], [46.62240881101695, 24.750250929368594], [46.62253927865302, 24.750306659402302], [46.622569791571614, 24.75034842046719], [46.62265668677591, 24.75038474125975], [46.62295343089889, 24.750486772997853], [46.623152603864675, 24.750567726581995], [46.623533621315055, 24.750722741045493], [46.6237255515216, 24.750799892549644], [46.62385491569945, 24.750848764065054], [46.62398427996112, 24.750897634560456], [46.624100399496704, 24.750939914673783], [46.62421651811765, 24.75098219470353], [46.624382710428236, 24.75104271029235], [46.62454890190173, 24.75110322569876], [46.624560194317105, 24.751078436871833]]], [[[46.623738745515205, 24.75133039330083], [46.623433847219715, 24.751201930647706], [46.62342872316016, 24.751211640002865], [46.62341865455737, 24.751207056722254], [46.62342374529718, 24.75119767457908], [46.62298495992378, 24.75101280101044], [46.62298059583613, 24.751022484060808], [46.622967936989745, 24.751017537851553], [46.62297261714835, 24.751007601273585], [46.622537690568244, 24.75082435941815], [46.62253220367305, 24.7508339995396], [46.62251962216151, 24.7508276204498], [46.62252379736025, 24.7508184649464], [46.62234489565886, 24.75074254952542], [46.62208762574361, 24.750634270908886], [46.6220822228531, 24.750644976433748], [46.62207195194768, 24.750640416015425], [46.62207754681038, 24.750630027137127], [46.621639428425546, 24.750445434769016], [46.62163371843469, 24.750455563939497], [46.62162239248438, 24.750450691669183], [46.621627218777256, 24.75044073278068], [46.62118978155828, 24.750256264392423], [46.62118484447993, 24.75026599332376], [46.62117325415668, 24.75026040336203], [46.621177926997376, 24.750251265080117], [46.62074016202229, 24.7500668891567], [46.62073983098115, 24.75006675098198], [46.62073492803122, 24.75007659781095], [46.62072427690649, 24.750071607112567], [46.62072909276787, 24.750062287618558], [46.62072752905184, 24.750061637288677], [46.62070477904737, 24.750053237185], [46.62044955311458, 24.749962682790958], [46.62037901968486, 24.74993789799033], [46.620321390002985, 24.749919041114946], [46.62024022073404, 24.749892877868398], [46.620095980750094, 24.749848686625395], [46.61985324853883, 24.749774854190374], [46.61984437125653, 24.749797928158245], [46.62009296345933, 24.74990269752543], [46.62055527873386, 24.75009724832787], [46.62099348855465, 24.75028254275209], [46.62157351766413, 24.750526983246054], [46.62246540528528, 24.750902821659324], [46.622919530230156, 24.751094266287314], [46.62332072901315, 24.751263639067467], [46.623819372233235, 24.751473757155257], [46.624408699578055, 24.75172209518496], [46.6251837758064, 24.752048971000505], [46.62519629591986, 24.752025225207056], [46.62480001553041, 24.751836103916574], [46.62446317288093, 24.751675275059014], [46.62381964593177, 24.751367775148214], [46.62377525026835, 24.751346241768516], [46.623738745515205, 24.75133039330083]]], [[[46.62642916681416, 24.752464882971587], [46.62640085408294, 24.752452821498537], [46.62639605596868, 24.752452996382292], [46.626348608648286, 24.75245944624073], [46.62623741673419, 24.7524125196131], [46.626210980633054, 24.752372957929985], [46.62620761870841, 24.752371045962242], [46.62598111301193, 24.752275589340538], [46.625960753407014, 24.752313935320736], [46.625691583034495, 24.752185245908716], [46.62570550142349, 24.75215962131453], [46.62554279732345, 24.752090824143686], [46.625538572101775, 24.75209878030926], [46.62553728738215, 24.752098222712192], [46.625536095404335, 24.752100461297857], [46.625530447796855, 24.752098039596735], [46.625531542832256, 24.752095797548467], [46.6255291877415, 24.752094818172388], [46.625533076145175, 24.752086736546698], [46.62546081695368, 24.752056384903785], [46.62544864059633, 24.75207918977586], [46.62568561321025, 24.752192483338895], [46.625956480939045, 24.752321982300035], [46.626050391608146, 24.752367111232985], [46.626122115387744, 24.752401578395475], [46.62622062190759, 24.75244875928563], [46.62625291186101, 24.752463060154504], [46.626294814999596, 24.752480819508992], [46.62639964117873, 24.75252499453463], [46.62642916681416, 24.752464882971587]]], [[[46.629447873320345, 24.75313790458575], [46.629306286999764, 24.7530782152366], [46.62916470080803, 24.75301852574619], [46.62887964301582, 24.75289859711535], [46.62862555247213, 24.75279155695855], [46.62837146235489, 24.752684517249527], [46.62814563580384, 24.75260036273867], [46.627847573254, 24.752489267422902], [46.627534080677336, 24.752371866222266], [46.62728870047452, 24.75226841471377], [46.627043321647406, 24.752164962770223], [46.62651839046776, 24.751943583139695], [46.62609475951701, 24.751765380402905], [46.62588589810463, 24.751678652738565], [46.62566871679489, 24.751599152486673], [46.62518536333997, 24.751422948556986], [46.62517488021386, 24.751446323732274], [46.62540836116193, 24.751544651258637], [46.62584705831683, 24.751729718891013], [46.62628880097387, 24.751916069453973], [46.6266368461572, 24.752062861444244], [46.62664458366903, 24.75204756444997], [46.626653961143376, 24.75205183086811], [46.62664635376816, 24.752066870928786], [46.62709223035967, 24.75225494020515], [46.627967429656366, 24.752624089063147], [46.62797419472431, 24.75261233020699], [46.628001646348274, 24.752623626946196], [46.627997564077425, 24.75263662341955], [46.6284140683744, 24.752811999675526], [46.6284205408477, 24.75280108367878], [46.628450269562066, 24.7528132837624], [46.628444697140786, 24.7528249041712], [46.628614922724296, 24.752896399050194], [46.6287851485051, 24.75296789462781], [46.62897773696232, 24.753025195224595], [46.62924338249735, 24.753104610350917], [46.62931643942421, 24.753126724197834], [46.62932155073001, 24.753113793249025], [46.62934485360499, 24.753120302530576], [46.62933973371184, 24.75313356042339], [46.62943685759563, 24.753162617599074], [46.629447873320345, 24.75313790458575]]], [[[46.631895976936995, 24.7541707438069], [46.63153702145439, 24.7540191418296], [46.630998531978015, 24.75379185336122], [46.630888509672396, 24.753745436749423], [46.63046170531135, 24.75356561019374], [46.630437072144744, 24.753555443476312], [46.630271317418405, 24.7535060394035], [46.630082235954625, 24.753449507755914], [46.62989289954932, 24.753392900083494], [46.62978616995578, 24.753360989817004], [46.62977596059662, 24.753385890912398], [46.63005446983168, 24.753503322961308], [46.630413561132826, 24.753654663512616], [46.63059318383192, 24.753730455406597], [46.63077242519897, 24.753806104956762], [46.63113160224059, 24.75395759807423], [46.63138766226122, 24.754065579335233], [46.63139644168495, 24.754068395578127], [46.63142643765629, 24.754065886608174], [46.63144720735129, 24.754063897958886], [46.6318609296252, 24.754238667886632], [46.63204047911279, 24.754314329651134], [46.63239477577199, 24.75446357128455], [46.63238968093979, 24.75447728766839], [46.63273968014914, 24.75462477940887], [46.632735665281, 24.754633215615545], [46.63292724582389, 24.754713918749907], [46.63310694441644, 24.754789618181555], [46.63328636583105, 24.754865201227243], [46.63346606933231, 24.75494056337371], [46.63364589071282, 24.755015699187524], [46.63382563707541, 24.75509098005777], [46.6340049516499, 24.755167099690905], [46.63418426543218, 24.75524321820534], [46.63436369322262, 24.75531911674996], [46.63454326201692, 24.755394742661718], [46.63456121721643, 24.755402304446246], [46.63459084693464, 24.755414783332455], [46.63459872440179, 24.75541810130194], [46.63464458718753, 24.755331857086365], [46.63453867662849, 24.755287109401824], [46.634385398201694, 24.755222347438533], [46.634308988723795, 24.7551900636593], [46.63431034342666, 24.755187727527208], [46.63387117429824, 24.755002717116458], [46.63367874242921, 24.754921788863836], [46.63352302199515, 24.75485629959173], [46.633332412991, 24.754776137421484], [46.63279378280964, 24.754548930368525], [46.6324347317173, 24.75439751226197], [46.631895976936995, 24.7541707438069]]], [[[46.63374033711924, 24.755545497830227], [46.63344226169329, 24.755419865916064], [46.63343583888189, 24.755430622662473], [46.63342317799621, 24.755425432711807], [46.63342883330478, 24.755414205798413], [46.63330199198353, 24.755360781064248], [46.6332886888157, 24.755384130613376], [46.63314324743194, 24.75532417562091], [46.633155980720495, 24.75529951225837], [46.63294703579435, 24.75521128347971], [46.6329422356116, 24.755220761168577], [46.63293198129022, 24.75521677017508], [46.63293672696732, 24.755206904834065], [46.63280178171251, 24.755149820964732], [46.632797593694185, 24.755149777226304], [46.632752385206686, 24.755158031303193], [46.63263907636311, 24.75511040317354], [46.63262742657517, 24.755092013485203], [46.63261706877565, 24.755075337863936], [46.63261599131167, 24.755073620554878], [46.63261411772844, 24.755071512840907], [46.63261136750694, 24.755069587134706], [46.632540407627516, 24.755040024869118], [46.63236075845242, 24.754964555363863], [46.63196211125341, 24.754796479348908], [46.63195786543288, 24.75480442236115], [46.63194769068025, 24.75480015956069], [46.63195184062588, 24.754792143555427], [46.63146736317752, 24.754587853186255], [46.63146292324533, 24.754595925608502], [46.63145317884055, 24.75459182963705], [46.6314567269523, 24.754583382292385], [46.63119726058063, 24.75447412186565], [46.63108471255249, 24.754426741547775], [46.63097304450142, 24.75437973168166], [46.63096829533597, 24.754387673828003], [46.63095878165363, 24.754383601495082], [46.63096234314317, 24.754375267780503], [46.630483035031, 24.75417324367308], [46.630478423892086, 24.75418252059456], [46.63045980001033, 24.75417543689344], [46.630464413857084, 24.754165382546205], [46.62958270628683, 24.7537938631029], [46.629578644779905, 24.75380207401558], [46.62957637128597, 24.753801366494248], [46.62957534076014, 24.753803546470376], [46.62956802672453, 24.7538004261528], [46.62956947010805, 24.753798515264485], [46.62956685933445, 24.753796965394397], [46.629570827276936, 24.75378885843039], [46.62913633344244, 24.75360535740901], [46.6291309504986, 24.753615355074434], [46.629112666620706, 24.753608552817674], [46.6291181383495, 24.753597705461015], [46.628683347077896, 24.753414498840467], [46.62867749431054, 24.753425092998583], [46.62866847150124, 24.753421650818883], [46.62867417051516, 24.75341063938683], [46.62779223478586, 24.753039107796905], [46.62778669198097, 24.753049819543747], [46.627768166295, 24.75304182520559], [46.62777352711248, 24.753031260803763], [46.62769260903557, 24.752997093002975], [46.62748277967741, 24.75290855888008], [46.62691190590442, 24.75266818355512], [46.62690786574143, 24.752673717068568], [46.626886895046795, 24.75266512074915], [46.62688382280058, 24.75266935801971], [46.6268745720835, 24.752665186852404], [46.62687702061299, 24.752660660203663], [46.62681694233046, 24.752635479704363], [46.626806335654926, 24.752652994689747], [46.626788602905776, 24.75264498800292], [46.62679757466455, 24.75262743388933], [46.626543153379345, 24.752518669148852], [46.62651428323661, 24.752573381489558], [46.626584450218665, 24.752603007713354], [46.626764027193666, 24.752678606226844], [46.626837062439385, 24.752709505873476], [46.626943489810905, 24.75275444231735], [46.62712307758108, 24.7528300023419], [46.62730257811075, 24.752905756309893], [46.62748223215654, 24.75298121042801], [46.6276618169812, 24.753056799605275], [46.627843568867085, 24.75313333653139], [46.62820039445047, 24.75328392435655], [46.62905301639706, 24.753643787081014], [46.62905710228789, 24.75363615467522], [46.62928144098677, 24.753730599788906], [46.62946102114138, 24.75380620120953], [46.63000149874852, 24.75403373372399], [46.629997822120096, 24.75404196212883], [46.63017526447243, 24.754116506046245], [46.630354876096106, 24.75419216469223], [46.63053431909728, 24.75426791794716], [46.6308933244509, 24.754419429706722], [46.631611164666, 24.754722681720946], [46.63214979038156, 24.754949788395148], [46.632508851027644, 24.755101231398886], [46.63268860794109, 24.755176449436146], [46.63286783573458, 24.75525277635821], [46.632975244068646, 24.755297853831166], [46.6330474985715, 24.755328178259276], [46.63310183312457, 24.755350980935795], [46.633110646662644, 24.755354733006765], [46.633124900037316, 24.755360799493342], [46.63314796695351, 24.755370618047138], [46.63315912227672, 24.755374852013713], [46.633173566781174, 24.755380335847676], [46.633182672099906, 24.755383792193854], [46.63319652093697, 24.755388487065773], [46.63322917279348, 24.755399724296634], [46.63372957548736, 24.755570459361074], [46.63374033711924, 24.755545497830227]]], [[[46.61753096003473, 24.748431177179345], [46.617482465985574, 24.748410772278046], [46.61742190687041, 24.74846073814161], [46.617451620032675, 24.748473268423744], [46.6176334371772, 24.74855000812255], [46.61803240015108, 24.748718521499402], [46.618140153567154, 24.748764037961124], [46.61902531801664, 24.74913756515407], [46.61926939007487, 24.74924075688713], [46.61949105006316, 24.749334265742814], [46.6197419841829, 24.749439861872123], [46.62012039271625, 24.749599586988662], [46.620328912323835, 24.74968765398777], [46.62057264312858, 24.74979052214726], [46.62074749835084, 24.749863984331277], [46.620936885308325, 24.749943780959], [46.62113682454145, 24.750027713123316], [46.6213955808959, 24.750136252765145], [46.62160067636918, 24.75022295637369], [46.62218563861397, 24.750468731536667], [46.62286818542286, 24.750756196125725], [46.62339210780156, 24.750977105195656], [46.624764986814746, 24.751555538683718], [46.62486307275554, 24.751596774958333], [46.62529625902772, 24.75177986253806], [46.62565033498313, 24.751929379621714], [46.62709333638153, 24.75253762019637], [46.627458976011695, 24.752691691470687], [46.62777699568049, 24.752825545020716], [46.62807641739792, 24.75295149915522], [46.628410063738336, 24.75309218527701], [46.628647893158295, 24.753192666020436], [46.62885728218407, 24.75328100370049], [46.62925265774721, 24.753447792186485], [46.62960289468266, 24.753595042472323], [46.62995914207974, 24.753745625022226], [46.63026345847073, 24.75387339755801], [46.63036112068246, 24.753914626555222], [46.63125914256225, 24.754293163350347], [46.631268092711714, 24.754296937523396], [46.631539560431456, 24.754411272349998], [46.63184941804843, 24.754542073598653], [46.63219349895408, 24.75468698199716], [46.63242688886131, 24.754785353230755], [46.632702926144226, 24.75490160889283], [46.63289260954009, 24.75498147226738], [46.63311471870962, 24.755075160115577], [46.63339308761845, 24.755192690106476], [46.633724182863276, 24.755331957868776], [46.63407576138674, 24.755480304895038], [46.634430962833235, 24.755629803355546], [46.634476027019915, 24.75564882961771], [46.63450188977405, 24.755600195400376], [46.634508138333125, 24.755588445518946], [46.634010920150736, 24.755378004999], [46.63364322595581, 24.755223001317987], [46.633440182701975, 24.75513718281845], [46.633324674861335, 24.75508859052137], [46.63316389388144, 24.755021061328538], [46.63270470177357, 24.754827232183672], [46.63219338617116, 24.75461153244418], [46.63164609941632, 24.754381027781164], [46.631170522802066, 24.754180740379702], [46.63107210718678, 24.754139473183596], [46.6309958057135, 24.75410724696495], [46.6308318647321, 24.754037871528553], [46.630785126432464, 24.754018220381635], [46.62868656430328, 24.753133576934726], [46.62855639520984, 24.753078644719782], [46.6283592394836, 24.75299621403065], [46.628147336939676, 24.752907578792634], [46.62793113107369, 24.752815562592325], [46.62754006459522, 24.75265017098623], [46.627239418994876, 24.75252390938943], [46.62708182376388, 24.752458016360574], [46.62698134913802, 24.752415300600866], [46.626645725446025, 24.752273764022405], [46.62630141839872, 24.752128665072316], [46.626054308685376, 24.75202448264825], [46.62584175121613, 24.7519349671699], [46.625681130522665, 24.751867680655856], [46.62554896659545, 24.751811219782567], [46.62545344715797, 24.75177075068234], [46.625294139421136, 24.751703729389014], [46.625231473765055, 24.751677743812603], [46.62505868356797, 24.751605313865372], [46.62500565743413, 24.75158276029663], [46.621707301550046, 24.75019171756266], [46.621540556567616, 24.7501216557786], [46.621281413648035, 24.750012591473013], [46.62113820174949, 24.74995196090607], [46.62084689465765, 24.749828920181148], [46.62064043244272, 24.74974248579372], [46.62044151036173, 24.74965855095952], [46.6203254565688, 24.749608962703544], [46.620221437938866, 24.749565263862742], [46.62007991341149, 24.7495055177975], [46.619876125372755, 24.749419893093698], [46.619723237984935, 24.749355135617783], [46.6196974857941, 24.74934485906962], [46.61956067835591, 24.749287124632634], [46.61929210099991, 24.74917345458453], [46.61912037800255, 24.749101224449024], [46.61891569370378, 24.749015083478444], [46.61868831733499, 24.74891924369169], [46.618472741028484, 24.748828691697625], [46.61816632428143, 24.74869930783204], [46.617879512626786, 24.748578709959308], [46.61753096003473, 24.748431177179345]]], [[[46.63435810324249, 24.755870582416314], [46.634152109777055, 24.755799640793686], [46.63414067743033, 24.755823514451706], [46.63433874855891, 24.75590697814578], [46.63435810324249, 24.755870582416314]]], [[[46.65299662215453, 24.76369299766241], [46.65290924656655, 24.763656966037328], [46.652909125684666, 24.76365724636518], [46.652905565463186, 24.763665505589636], [46.65290200524126, 24.763673764814026], [46.652898445018884, 24.763682024038363], [46.652894884796076, 24.763690283262612], [46.65289132457282, 24.763698542486797], [46.65288776336044, 24.76370680172182], [46.652884203136296, 24.763715060945877], [46.65288064291172, 24.763723320169856], [46.652878601352676, 24.76372805489644], [46.65296229331608, 24.763761004090675], [46.65299151706702, 24.763772639440482], [46.65314272927583, 24.763834915888523], [46.65332300174826, 24.763909160625545], [46.65350293128555, 24.76398407615936], [46.65355561665123, 24.764006196767728], [46.65362881376634, 24.7640369283771], [46.653892122916055, 24.764147351714826], [46.65389249580378, 24.764147508311535], [46.653924307559855, 24.76408330357568], [46.653894620981234, 24.76407085460349], [46.65371491365049, 24.763995495588535], [46.65359827059923, 24.763946581866456], [46.65334339388037, 24.763839442607203], [46.65317609064393, 24.763768827913346], [46.65299662215453, 24.76369299766241]]], [[[46.655049848679504, 24.76392773005334], [46.654875098042766, 24.763853944683795], [46.65469538858463, 24.76377859049126], [46.6541587763448, 24.763547548213396], [46.65398100155824, 24.76346836245411], [46.65380386775893, 24.76338790805516], [46.65371657998998, 24.763347307297792], [46.653687361493525, 24.76333360169831], [46.65362781049082, 24.763305323364968], [46.653452991544675, 24.7632202806567], [46.6532794052478, 24.76313279895767], [46.65316174127361, 24.76307122944545], [46.65315937643285, 24.763076714435723], [46.65315578363121, 24.763085049867946], [46.65315426496798, 24.763088573464795], [46.653152190829125, 24.763093385300095], [46.6531485538858, 24.76310182234334], [46.65314500423492, 24.7631100561751], [46.65314141143148, 24.763118391607044], [46.65313781763891, 24.763126727049826], [46.65313422483455, 24.763135062481624], [46.65313377394594, 24.76313610939624], [46.65314412596115, 24.763141559652453], [46.653157197434844, 24.763148442574828], [46.65324750582457, 24.76319599329606], [46.65336886278568, 24.76325820093821], [46.653420570893644, 24.76328450646863], [46.65359502372897, 24.763370271955765], [46.65377113891061, 24.7634527440829], [46.65382286685573, 24.763476429055324], [46.653948341224755, 24.763533065035265], [46.654126415735895, 24.763611656125164], [46.65430518132505, 24.76368887870138], [46.65442400232632, 24.763739400240695], [46.65443125685454, 24.763723613394493], [46.65453940644553, 24.763770701653304], [46.654531812429475, 24.763784821905126], [46.654820100703425, 24.7639065878498], [46.65483146173445, 24.763884602403962], [46.65483241331764, 24.76388276172783], [46.65539381142372, 24.76412044815953], [46.65581490285095, 24.764298206799936], [46.65584260785318, 24.764339423542346], [46.656100141705615, 24.764446645495806], [46.656119076994486, 24.76445462532181], [46.65650401886554, 24.764616829409274], [46.656544756117455, 24.764633976145102], [46.65657310347587, 24.764643763219276], [46.65664152468694, 24.76466824395675], [46.65682596054758, 24.764734234606518], [46.65683282900664, 24.76473669212956], [46.65684397496814, 24.764712978082105], [46.65685512190235, 24.764689263120275], [46.65684977462487, 24.76468705512128], [46.656670517696504, 24.764610804538943], [46.65649098444395, 24.764535101231807], [46.65631137430314, 24.764459549332752], [46.6562200804843, 24.764421129749817], [46.655049848679504, 24.76392773005334]]], [[[46.65640935035097, 24.76512821130858], [46.6562297538366, 24.765052631209752], [46.65620793584515, 24.765043449031257], [46.65619363489355, 24.765071752111197], [46.65603586848366, 24.765005359235282], [46.655856323396854, 24.764929676075003], [46.655760241786, 24.764889199103795], [46.65572954567413, 24.76484322829362], [46.65569050592243, 24.764826799326354], [46.655510891813286, 24.764751320547177], [46.65533122031513, 24.76467582321631], [46.65515158755884, 24.764600323426063], [46.65497197699536, 24.764524766283035], [46.65479236862807, 24.764449209793348], [46.6546140919358, 24.76437421260438], [46.654596607171705, 24.764406511707683], [46.65437019847961, 24.764309982029957], [46.654385117023, 24.764278038146674], [46.654253524626746, 24.76422258613168], [46.65407396908883, 24.764146923421904], [46.65395151536558, 24.764095322151203], [46.65391955479643, 24.764158891997003], [46.654041875182465, 24.764210501084353], [46.654221385321414, 24.7642862392706], [46.654400905614374, 24.76436198163407], [46.654580421135286, 24.764437721116508], [46.65475995609895, 24.764513419528885], [46.65493949325916, 24.76458911859477], [46.65511903858398, 24.76466482095685], [46.65529863462584, 24.764740379876347], [46.65547824655002, 24.764815927560306], [46.65565784330482, 24.76489150859366], [46.655837439265866, 24.76496708850763], [46.65601701520999, 24.765042709047776], [46.65619653452487, 24.765118442850362], [46.65637606656475, 24.765194151006153], [46.656555598799855, 24.76526985803176], [46.65673513224286, 24.76534556572174], [46.656914706328216, 24.76542119057386], [46.657009887317976, 24.765461254181044], [46.65702177793117, 24.76543903248617], [46.657033667563596, 24.76541681170419], [46.65693964489723, 24.765371782938544], [46.65676426504164, 24.765287848454715], [46.65658887480044, 24.765203933733186], [46.65640935035097, 24.76512821130858]]], [[[46.659794753206775, 24.76596303872874], [46.65970795659791, 24.765926779994153], [46.65952827525076, 24.765851365647215], [46.65934875407106, 24.765775635997198], [46.65916923210991, 24.765699906130706], [46.658810188809376, 24.76554844571543], [46.65872517994841, 24.765512585523375], [46.65871156453691, 24.765537444827434], [46.658693222898535, 24.76553018469264], [46.65870616943862, 24.76550492198363], [46.65863051043762, 24.76547302750017], [46.65845100768927, 24.76539734076184], [46.658306430537685, 24.765336500620474], [46.65830223300738, 24.765344698396547], [46.65829760963608, 24.765353890455934], [46.65829298626414, 24.7653630825152], [46.65830130662644, 24.765394591544386], [46.65842492503161, 24.76544893635748], [46.65860312817681, 24.76552727847222], [46.65878124866625, 24.765605783800492], [46.658959803901894, 24.76568342815066], [46.65913911181424, 24.765759580490265], [46.65958270474182, 24.765945272465608], [46.65959032225359, 24.765930053804627], [46.65977366496436, 24.76600758810479], [46.659794753206775, 24.76596303872874]]], [[[46.66012431468516, 24.76611029010117], [46.66001654286311, 24.766057852253965], [46.659986117276205, 24.766073939534387], [46.65989226475775, 24.766034159305242], [46.65987512349829, 24.766069669452687], [46.66003723563476, 24.76613721260659], [46.66009563965218, 24.766162020338236], [46.660109977171516, 24.76613615522027], [46.66012431468516, 24.76611029010117]]], [[[46.658755811982644, 24.766087578717958], [46.65875300075982, 24.7660863936641], [46.65874108374485, 24.766108692522792], [46.65872916572511, 24.766130990488882], [46.65873297055011, 24.76613283087035], [46.65890833162058, 24.766216805577812], [46.659084504173535, 24.766299172963226], [46.6591034549067, 24.766307312933556], [46.65911888870576, 24.766273665484075], [46.65910125712008, 24.76626597318023], [46.658939194194915, 24.76619526562972], [46.65894741893732, 24.76617863176256], [46.65893108999996, 24.766171706909574], [46.65880947627482, 24.766120132991396], [46.65881394061374, 24.76611207129179], [46.658755811982644, 24.766087578717958]]], [[[46.66100795866145, 24.76703661993308], [46.6609103746483, 24.766995762197922], [46.660896256051345, 24.76698983783266], [46.6608833850756, 24.767014066971058], [46.66069607803774, 24.76693520660536], [46.660670777702066, 24.766895103644003], [46.66055119468744, 24.766844569580186], [46.660371735047256, 24.766768712358868], [46.66036096052017, 24.76676417923385], [46.66034991300446, 24.766781277856346], [46.660332985631555, 24.766773458714727], [46.66034166949134, 24.766756263507677], [46.65999848535173, 24.76661145073763], [46.659989187977686, 24.766628542574974], [46.65997121806235, 24.76662099588242], [46.65997879781838, 24.7666030129732], [46.65983306549935, 24.766541722221483], [46.65954957746411, 24.766422496400118], [46.65954066950042, 24.766439279622503], [46.65952237536461, 24.76643136628178], [46.65953017870746, 24.766414354230253], [46.65920160457372, 24.76627578364427], [46.659187937548765, 24.766303305280616], [46.659143355432604, 24.76628397718333], [46.65912489864286, 24.76631627941462], [46.65926406453822, 24.76637482752705], [46.65944367134394, 24.76645038925625], [46.6596232543109, 24.76652600158614], [46.659802817202056, 24.766601650028875], [46.65998238804188, 24.766677285517815], [46.66016198992311, 24.76675285994376], [46.66034161481154, 24.76682843840374], [46.66052112973168, 24.766904134330513], [46.66070067055341, 24.766979828842025], [46.66088017980759, 24.767055587583638], [46.66097741357635, 24.767096502492034], [46.66100795866145, 24.76703661993308]]], [[[46.66283035281951, 24.767804898264906], [46.66270596719994, 24.767752359842717], [46.66269345794782, 24.76774707689384], [46.66268066607971, 24.767772323753704], [46.662663110374524, 24.767763900609275], [46.66267545560417, 24.767739494785108], [46.662242327680374, 24.767557049638153], [46.66222945636774, 24.767582722605557], [46.66221147825338, 24.767574728452352], [46.66222417529078, 24.767549334607786], [46.66198772499316, 24.767449728601402], [46.6618081577361, 24.767374084748607], [46.66179418994309, 24.767368203942798], [46.66178189999021, 24.76739409885462], [46.66176400059885, 24.76738622024421], [46.6617759264309, 24.767360605658585], [46.66162867409321, 24.76729831785269], [46.66154925993845, 24.76726474027245], [46.66151480532737, 24.76727121707314], [46.66148035072427, 24.767277694768854], [46.66143191193468, 24.767256699200946], [46.66130951024052, 24.767203653606717], [46.66132510311955, 24.76717048091394], [46.661154296939806, 24.76709840567618], [46.66112434643023, 24.767158527252608], [46.661239274051304, 24.767206952768753], [46.66141882824267, 24.767282622756067], [46.66159843177983, 24.76735819536146], [46.66177806343949, 24.76743371054741], [46.66195761637617, 24.767509536072634], [46.662137037408435, 24.7675853167894], [46.66231653018408, 24.76766112266859], [46.6624960073958, 24.767736932107038], [46.662675512934634, 24.76781269947299], [46.66280082849904, 24.767865042499512], [46.66283035281951, 24.767804898264906]]], [[[46.66457114784596, 24.767939653322163], [46.66439156691836, 24.767864034490405], [46.66421196214177, 24.76778846535726], [46.66403237972283, 24.767712851508772], [46.66385265586375, 24.767637516193354], [46.66367296209111, 24.767562122533185], [46.66349327817145, 24.76748671048024], [46.66331385168472, 24.767410787918863], [46.663134383020875, 24.7673349495696], [46.66295491357582, 24.767259111003973], [46.662775445326986, 24.767183272200022], [46.66259595128779, 24.76710748582492], [46.6624163475801, 24.76703191352401], [46.6622368539434, 24.76695612579125], [46.662057251650424, 24.766880553926978], [46.66187764856359, 24.76680498094329], [46.66169804668436, 24.76672940862377], [46.66151836792184, 24.7666539877145], [46.661338712494135, 24.76657852117636], [46.66133217590743, 24.766575751398598], [46.66131906970331, 24.766599831494705], [46.66130596447105, 24.76662391067612], [46.661313840991745, 24.766627797812944], [46.66148807034021, 24.766714015694244], [46.66166233845944, 24.766800157088845], [46.66183668773478, 24.766886137557567], [46.66197554260363, 24.766954612879424], [46.661985702754045, 24.766938617393087], [46.66200433228147, 24.766947789841996], [46.66199697603338, 24.766964193916838], [46.662011896635846, 24.766970415354283], [46.66215037450095, 24.767028162949977], [46.662201832704184, 24.76702230444899], [46.662382857562626, 24.767098270245533], [46.662562470990984, 24.76717367544056], [46.66274219149997, 24.76724916048125], [46.66292174266903, 24.767324834074817], [46.663101295033904, 24.767400507429876], [46.663103897479026, 24.767401603525858], [46.66313296293555, 24.767442200535463], [46.66326900999066, 24.767499635463626], [46.66332264481719, 24.76752227825982], [46.66333132392393, 24.76750616460905], [46.66334949075034, 24.767513919972153], [46.663341446947946, 24.76753021617361], [46.663448468382164, 24.767575495420093], [46.66362789901834, 24.76765140873031], [46.66377516080838, 24.76771371245967], [46.663783457526705, 24.767696660417954], [46.66379592553508, 24.767703001014716], [46.66378768912337, 24.76771901316231], [46.66380740504481, 24.767727175612848], [46.663987032643895, 24.767802699848076], [46.66402926494001, 24.767820430066795], [46.6640436615069, 24.767793777530834], [46.664288771657986, 24.767897256648737], [46.664274716058245, 24.767924485071003], [46.66433324558024, 24.76794961020376], [46.66434239255865, 24.767932847539736], [46.664359680694126, 24.76794003108088], [46.66435185044276, 24.767957428287453], [46.66452565658932, 24.76802978872504], [46.66455829912475, 24.768042482535257], [46.66457564828515, 24.768048604478153], [46.664585005587696, 24.768051621743894], [46.664594769882484, 24.768054533361266], [46.66460453515437, 24.768057444064215], [46.66461232025986, 24.76805965266277], [46.66465220856619, 24.76807096393877], [46.664672122367364, 24.768076605012414], [46.66468888107839, 24.768036446038792], [46.664705639779335, 24.767996287063667], [46.66457114784596, 24.767939653322163]]], [[[46.66358802150626, 24.768154536766907], [46.66360005979892, 24.768128703205136], [46.663587681936065, 24.768123490202893], [46.663579085893744, 24.768140271985317], [46.66356063511125, 24.76813303265037], [46.66356898859111, 24.768115561048173], [46.66342434081515, 24.768054730502804], [46.66324473579806, 24.767979199024023], [46.66313920745008, 24.767934824911393], [46.66313048091879, 24.767951613536997], [46.66311262294136, 24.76794418337105], [46.66312078038791, 24.767927283691428], [46.66306501535091, 24.767903820287174], [46.66305787081604, 24.767900702506427], [46.66302616416465, 24.767960178502804], [46.66306917790073, 24.76797800595507], [46.66321452597002, 24.768039016877857], [46.66339403425434, 24.76811477879781], [46.66357598320889, 24.768180370327883], [46.66358802150626, 24.768154536766907]]], [[[46.666539539419794, 24.768785353925438], [46.66635798381548, 24.7687136202871], [46.66617645956572, 24.768641849954737], [46.665994852688364, 24.768570245540552], [46.665810344925376, 24.76849754816991], [46.66578948906474, 24.768545073448156], [46.6657696465958, 24.768590287795135], [46.66594700006055, 24.76866506289764], [46.66612654155397, 24.76874076056361], [46.666141418736714, 24.76874703261531], [46.66614855156299, 24.768734298374252], [46.666321101522, 24.768786701442515], [46.666509850453295, 24.768844154447713], [46.66654954384118, 24.76885631608279], [46.66656188140689, 24.768827313452793], [46.66657396581487, 24.768798903225083], [46.666539539419794, 24.768785353925438]]], [[[46.66520340527574, 24.76884410266219], [46.66507823777703, 24.76880011270768], [46.665066432840895, 24.768825851686852], [46.66505462887684, 24.768851589751538], [46.665174216009135, 24.768901938521473], [46.665353815235896, 24.768977521809312], [46.66553339251909, 24.76905314935739], [46.66571294980021, 24.769128818435497], [46.66589250629969, 24.769204487297035], [46.6660720630063, 24.769280155931], [46.666251659529294, 24.76935582841107], [46.66627620903451, 24.76936618040494], [46.66629578524579, 24.76933221352252], [46.66631536144683, 24.769298246637952], [46.66628816233587, 24.76928341782327], [46.666118088196185, 24.769188960487952], [46.66600278528878, 24.769124687450606], [46.665943318707036, 24.76910380617463], [46.66575829985973, 24.769038960556944], [46.665573284086356, 24.768974109250387], [46.66538831278194, 24.768909167826035], [46.66520340527574, 24.76884410266219]]], [[[46.65306320556911, 24.76340748602677], [46.65302397942758, 24.763390811895615], [46.65302305555246, 24.763392954724342], [46.653019495333176, 24.763401213048244], [46.65301593413672, 24.763409472285765], [46.653012373928505, 24.763417731512288], [46.65300881371986, 24.763425990738742], [46.653005253510756, 24.763434249965126], [46.65300169330121, 24.76344250919146], [46.65299813309123, 24.763450768417705], [46.65299695114652, 24.763453510003586], [46.653324930682466, 24.76359228199779], [46.65341792252815, 24.763631347389108], [46.65462909273753, 24.764141043944047], [46.65609185219796, 24.764757887000922], [46.65699898232709, 24.765140126293314], [46.65811165853839, 24.76560913078301], [46.65849710747565, 24.765771611872992], [46.65946304656614, 24.766178304449095], [46.660175830970076, 24.766478768852917], [46.66130489272239, 24.766954677122758], [46.66236910471373, 24.767403124479625], [46.66289001220442, 24.767622748795684], [46.66433961096587, 24.768233912253844], [46.66435133458373, 24.768238854374278], [46.66561918868729, 24.768772767485615], [46.66693826746187, 24.769328562954378], [46.667616226601595, 24.769614283523186], [46.668076051035285, 24.76980118589318], [46.66810426557202, 24.769745459592105], [46.66792826602184, 24.769671344743877], [46.66653954891141, 24.769086271796837], [46.666303702987626, 24.768986765485927], [46.666008239925496, 24.76886165620081], [46.66560623237921, 24.768692344212305], [46.66526200814621, 24.76854725764162], [46.66500923924332, 24.768440893065836], [46.66477491346824, 24.768341971364674], [46.6644696502203, 24.76821296625817], [46.66421884094265, 24.76810692611596], [46.663884771600806, 24.76796711542101], [46.663520825791224, 24.767812558516237], [46.663281061532516, 24.76771222307791], [46.66285613629376, 24.767532807206955], [46.6624791398883, 24.767374900200945], [46.66204848623139, 24.767193314491067], [46.660823055340224, 24.766676334012427], [46.6603618719618, 24.766481468957938], [46.65967209703328, 24.7661914442775], [46.659345565809126, 24.766053951064993], [46.659061343413214, 24.765934336917667], [46.658970250062836, 24.765895814851852], [46.657559180694335, 24.76530177237329], [46.65742829583988, 24.765246613382974], [46.65665825914678, 24.764921800993278], [46.65630749699719, 24.764773732403878], [46.655910210764105, 24.76460642664681], [46.655629231466065, 24.7644888464761], [46.65547862030296, 24.764424614837633], [46.655434500439924, 24.764405752681547], [46.65537585590408, 24.764381248179923], [46.653936254271166, 24.763774896362914], [46.653730798398286, 24.76368798298765], [46.653486205822325, 24.76358546244679], [46.65331538671858, 24.763512916602945], [46.653255257191816, 24.763487547306816], [46.653219753879675, 24.763472884406106], [46.65319186043972, 24.763461195589148], [46.65306320556911, 24.76340748602677]]], [[[46.672260682117034, 24.77129022862144], [46.67229916208871, 24.771207004236853], [46.67230347203229, 24.771198470780536], [46.67226773174775, 24.7711834152663], [46.67208817279924, 24.771107747159302], [46.6719088765027, 24.771031960324777], [46.67172914604649, 24.770956228674567], [46.67154957615685, 24.77088058258601], [46.67136999393498, 24.770804959884803], [46.67129718587587, 24.770774268196863], [46.671276697528626, 24.77080900338344], [46.671256738078554, 24.770842841515613], [46.67133116818099, 24.770881896605747], [46.671415094574265, 24.770924126737633], [46.67150582504604, 24.77096728035676], [46.67156560247531, 24.770994629562008], [46.67167172465372, 24.771041667907866], [46.67168010180827, 24.771025521069856], [46.671707208321884, 24.771036685079004], [46.67169953199136, 24.771053474171534], [46.671863438407634, 24.77112159966885], [46.67204253487729, 24.771198185129492], [46.67212000874956, 24.771231595284448], [46.672127768118784, 24.77121805563352], [46.672154919460205, 24.771229607298043], [46.672148265463406, 24.771243057860232], [46.672222024572335, 24.771273990395358], [46.672260682117034, 24.77129022862144]]], [[[46.67182329337346, 24.771594825966016], [46.67149658754185, 24.771456619384995], [46.67148868152633, 24.771471546573046], [46.67146113493165, 24.771459352733675], [46.671468420639165, 24.771445217079528], [46.67129898981383, 24.77137714740875], [46.671114446821846, 24.771311354445217], [46.67103704446778, 24.771285635550683], [46.67102017600639, 24.771322122535043], [46.6710033075236, 24.771358608615085], [46.67107531347009, 24.771388900377662], [46.671254862264064, 24.77146455898552], [46.67143440245359, 24.77154029782096], [46.671614017590436, 24.771615857725894], [46.67177739548195, 24.77168463384522], [46.67182329337346, 24.771594825966016]]], [[[46.67587966470184, 24.772705938339527], [46.67500621876709, 24.77233758362559], [46.674961771787224, 24.77242997646583], [46.67499420859553, 24.772443319375366], [46.67500079856695, 24.772429612092758], [46.67502816890558, 24.772441232992694], [46.675022135737464, 24.772454428431715], [46.67527452676413, 24.772560398552532], [46.67534481108315, 24.772589907491266], [46.675457067033435, 24.772630163250323], [46.67553650357071, 24.772656939574286], [46.675829197298135, 24.77275572036086], [46.67585362795223, 24.772763965618743], [46.675866645835505, 24.772734951985125], [46.67587966470184, 24.772705938339527]]], [[[46.67727897517006, 24.773343140504256], [46.67723779029729, 24.773325766322795], [46.67721769624415, 24.77333830676434], [46.677161506913606, 24.773314760597962], [46.677155366949556, 24.773272897645118], [46.67693980869972, 24.773192920421668], [46.67692704582114, 24.77322124599356], [46.676914282937105, 24.773249571564563], [46.67725336040426, 24.77339257052805], [46.67727897517006, 24.773343140504256]]], [[[46.67578957533333, 24.773265756277635], [46.67571723441407, 24.773235128440373], [46.675709153227736, 24.773249498907195], [46.67568095160453, 24.773237703258562], [46.67568834912436, 24.77322323390459], [46.6754304636399, 24.77311436007173], [46.67526916574114, 24.773046182415776], [46.6752616561609, 24.773060631335575], [46.67523230618644, 24.77304778033551], [46.675240122653015, 24.773033281936126], [46.675071306507256, 24.772963125992042], [46.67489182242306, 24.77288730440813], [46.67482009072992, 24.772856723474963], [46.67481292652896, 24.772870383903943], [46.674782049960335, 24.772857693447047], [46.674788793450155, 24.772843632330318], [46.67471218731007, 24.772811782240307], [46.67453248400736, 24.772736395139464], [46.67437164814505, 24.77266757386736], [46.67436510534153, 24.772681191212147], [46.67433315910242, 24.77266822279479], [46.674340174652606, 24.77265379840279], [46.673994043862685, 24.772508907685463], [46.67392152798471, 24.7724782222088], [46.67391388650861, 24.77249316912834], [46.673881871235984, 24.77247806967074], [46.673889089935315, 24.77246477975882], [46.673634844297915, 24.772357724647463], [46.67347217271414, 24.772288660144522], [46.67346404844728, 24.772302267140606], [46.673436275767834, 24.772290496953335], [46.67344212047524, 24.772276509138905], [46.67308023460503, 24.772124087985517], [46.673075977257355, 24.77213255947843], [46.67294999114655, 24.772078837076286], [46.67295363914114, 24.772070793139825], [46.672843416392396, 24.77202388193789], [46.672834529360564, 24.7720385014331], [46.67280791633323, 24.772027953314442], [46.67281519557213, 24.77201253286705], [46.67275181667481, 24.77198583568619], [46.67273926438908, 24.772010459465157], [46.67257034330215, 24.771938987144466], [46.67258336821508, 24.771914725572977], [46.67239285847409, 24.77183429380563], [46.67238572720968, 24.771848214694675], [46.67235649245685, 24.771836171705452], [46.672362905563276, 24.77182149590095], [46.672198300914125, 24.771752493976706], [46.67194309450722, 24.771650429615573], [46.67193689763765, 24.771661318995697], [46.6719018802916, 24.771647530200266], [46.67186471548324, 24.771721403068856], [46.6719731665699, 24.7717671366751], [46.672154307540104, 24.771843681065935], [46.67233204570118, 24.771918952245134], [46.67233947785944, 24.771922099756367], [46.67251156883773, 24.771994578864515], [46.672692948419886, 24.77207080209229], [46.67287091117457, 24.772145592466572], [46.67294624283537, 24.772177446944795], [46.673052025857096, 24.77222216219825], [46.673409704674526, 24.772372624218278], [46.67359055657874, 24.77244916641003], [46.67378720875441, 24.772531495292696], [46.67394834010781, 24.772599526595787], [46.6743074510177, 24.772750656552844], [46.67484612726718, 24.772977860269176], [46.675025745347334, 24.773053415858552], [46.67538641228231, 24.773205720215273], [46.67556427073497, 24.77328068537224], [46.675743912517746, 24.773356249726483], [46.67610295833206, 24.773507742476546], [46.676250782015046, 24.7735699232104], [46.676268369334274, 24.773539270211717], [46.67628595565644, 24.773508617222358], [46.67614108009809, 24.77343223635954], [46.67596888540012, 24.773341796278327], [46.67578957533333, 24.773265756277635]]], [[[46.67951245878494, 24.77426550563154], [46.67744622768899, 24.773395355749017], [46.67741679288781, 24.77345192526479], [46.67746242760716, 24.773471780320158], [46.67745825072756, 24.77347945016649], [46.67756377705716, 24.77352437174471], [46.67757712303765, 24.77349978114082], [46.67781268102595, 24.77359897597264], [46.67780093171118, 24.773623900827307], [46.67947894576999, 24.774331206076347], [46.67951245878494, 24.77426550563154]]], [[[46.68008344258664, 24.774510371449928], [46.67997698778439, 24.774460807785033], [46.67955181092593, 24.774282299301614], [46.67951804100337, 24.7743477200341], [46.67993302251645, 24.774522491309412], [46.679941854155075, 24.77450696735696], [46.67995995556513, 24.77451449110951], [46.679952317230466, 24.774530359214268], [46.6800490000159, 24.774571280008285], [46.68006622130531, 24.774540825729925], [46.68008344258664, 24.774510371449928]]], [[[46.67971911869688, 24.774922937271487], [46.67925751518742, 24.774728201986047], [46.67924678338256, 24.774747887837098], [46.679224394218245, 24.77473831830543], [46.67923511074522, 24.774718966693968], [46.67885275905069, 24.77455739248754], [46.678843997705826, 24.774574109204746], [46.67882073829497, 24.774563505635605], [46.678828171988314, 24.77454704307159], [46.67865764417397, 24.774474615422974], [46.678605517586426, 24.774481881221785], [46.67849305106862, 24.774434251041935], [46.67846691879247, 24.7743945201028], [46.678403765064, 24.774368415192757], [46.67839501480665, 24.77438456294517], [46.67837073501354, 24.774374849247515], [46.678378853153305, 24.774357509553692], [46.67830323556433, 24.77432554466632], [46.67812371113492, 24.774249798917307], [46.677955292492854, 24.774179286183593], [46.67794673407478, 24.774195657482814], [46.677925300340156, 24.774186525772677], [46.67793328690356, 24.77416969319001], [46.67776453769683, 24.774098556432502], [46.67750518575237, 24.773988919070465], [46.677495870939765, 24.77400508212925], [46.67747321636396, 24.77399561190577], [46.67748111989522, 24.773979587453194], [46.67740527548613, 24.773947489200005], [46.677317387500295, 24.77391026021787], [46.67730340530828, 24.773937775146443], [46.67728942311041, 24.773965290073956], [46.67827266240257, 24.77438613409492], [46.6786319191249, 24.774537214549675], [46.67899099558449, 24.7746886527628], [46.679529908564874, 24.774915261961933], [46.679690713599385, 24.774982629549957], [46.67970491615135, 24.774952783411283], [46.67971911869688, 24.774922937271487]]], [[[46.68377404374425, 24.77603139252784], [46.68358049859185, 24.775949838718113], [46.68286193440119, 24.775647767153384], [46.682502760198425, 24.77549642543654], [46.68214366925668, 24.775345108968743], [46.68196403051777, 24.775269587779864], [46.681605110026624, 24.775117837370175], [46.6812460093309, 24.77496644833357], [46.68110492810433, 24.774907207220018], [46.68108562325282, 24.774940367468304], [46.68106631939236, 24.774973528606143], [46.68120418691927, 24.775049521808445], [46.681248156644294, 24.77507372096539], [46.68127616603977, 24.77508821097935], [46.68128609107324, 24.7750725247963], [46.6813087373096, 24.775082075773767], [46.681300667788804, 24.775098665671674], [46.68138520412503, 24.775134487059184], [46.68139065753248, 24.77513555441495], [46.68144121275441, 24.775130780993333], [46.68154965340317, 24.775177260487293], [46.68155292538003, 24.77517936356726], [46.68157811853939, 24.775214265917434], [46.68158193977787, 24.775217500458975], [46.68172510215676, 24.77527724861273], [46.68173376679079, 24.775261233465233], [46.68175881442223, 24.77527160971656], [46.68175030902832, 24.77528821356158], [46.68192566710089, 24.77536171279434], [46.681938383041704, 24.77533680026356], [46.68221048463072, 24.775452312212725], [46.68219775483505, 24.77547685383563], [46.68262260522412, 24.775655963042283], [46.682631203620325, 24.775639442977806], [46.68265409723499, 24.775648916925537], [46.68264617938704, 24.77566530293865], [46.68308196634004, 24.775849680771927], [46.68309033872966, 24.77583327157014], [46.68311422805895, 24.775841851231412], [46.6831064691474, 24.775860045757632], [46.68317573446824, 24.77588896550072], [46.68352220139482, 24.77602780445882], [46.683529259546404, 24.77601074188165], [46.68355441598423, 24.77602029226419], [46.68354755976325, 24.77603700225347], [46.68372442800651, 24.77609613821901], [46.68374195255778, 24.77610155343233], [46.68375799815526, 24.776066472980784], [46.68377404374425, 24.77603139252784]]], [[[46.6826833098151, 24.776170283695613], [46.68245224508612, 24.77607381557321], [46.68244393864222, 24.77608976894933], [46.68241205646377, 24.776075879772144], [46.68241951207518, 24.77606004611107], [46.68200647405295, 24.77588569728666], [46.68199785550627, 24.775902930822166], [46.681959405780916, 24.775886823817622], [46.68196747381651, 24.775869099884005], [46.68189463154841, 24.77583869117519], [46.68171487374374, 24.775763404899088], [46.681550945950896, 24.775694444052057], [46.68154372106312, 24.775710894459923], [46.681517325783, 24.775699074255115], [46.68152536544354, 24.77568364398261], [46.681356028164444, 24.77561150413026], [46.681176507929116, 24.775535747719317], [46.68110018400805, 24.775503646878377], [46.68109231235962, 24.77551951314145], [46.68106507819016, 24.77550781242474], [46.6810716867338, 24.775491486333106], [46.68099330750549, 24.775467285261062], [46.68084812143911, 24.775422701366608], [46.68083260108827, 24.775458435649373], [46.680817080716906, 24.77549416902809], [46.68113081947803, 24.77562629802349], [46.68184884851392, 24.77592901521458], [46.68264126302483, 24.776262852959473], [46.6826833098151, 24.776170283695613]]], [[[46.683501142863996, 24.776538690363523], [46.683343485606876, 24.77645819987607], [46.68333490924691, 24.776474224048446], [46.6833055324602, 24.776460602141157], [46.68331508380997, 24.776444351218515], [46.683151001154506, 24.776369535147317], [46.68297199401783, 24.776292823583706], [46.68296405555449, 24.77628942228648], [46.68294493237114, 24.776283894035423], [46.682899622424394, 24.776265159370457], [46.68289120452386, 24.776280910873712], [46.68286152202125, 24.776268811861776], [46.68286983810149, 24.77625284300723], [46.682772785702014, 24.776211514773227], [46.68272858783571, 24.776298933822446], [46.683288320322035, 24.776535239175708], [46.68346532545952, 24.776609681335415], [46.683483430575826, 24.776617295787265], [46.683502711625465, 24.776583721999895], [46.683521993653926, 24.77655014819931], [46.683501142863996, 24.776538690363523]]], [[[46.66906066758715, 24.77014868595835], [46.6686643670773, 24.769981320643478], [46.668632964185306, 24.770042933278265], [46.66868987548564, 24.77006692979537], [46.66941251485649, 24.770371344700916], [46.66997452574594, 24.770608142699974], [46.67061489498653, 24.770878050661963], [46.67121310454636, 24.771130659348138], [46.671847186335796, 24.77139729400463], [46.67253792928528, 24.771688365143415], [46.673421107056264, 24.772060446131412], [46.67428878285257, 24.772426836202442], [46.674963490290175, 24.772711078495632], [46.67563968509852, 24.772995767751887], [46.676459111101664, 24.773340954939783], [46.67705033968552, 24.77358912012354], [46.67751956199405, 24.773787078145013], [46.67807792177613, 24.774022325041404], [46.67865017887332, 24.774264713748448], [46.67930534032536, 24.774540315494043], [46.68002404419452, 24.77484346864995], [46.68072175722195, 24.775137402476027], [46.68139149962369, 24.775419422015904], [46.6821886716048, 24.775754892808994], [46.68305580698991, 24.77612057486666], [46.68394254823951, 24.776494574195922], [46.68450180363759, 24.776730041458247], [46.68517101111437, 24.77701201771954], [46.68592702694745, 24.77732994466959], [46.68610403061151, 24.777404745657282], [46.68613556052624, 24.777343624844995], [46.686091572642106, 24.777325014435515], [46.68563334815458, 24.777131681849127], [46.685499233177794, 24.777075126753278], [46.68512783476881, 24.776918447012637], [46.68486029407026, 24.77680621281321], [46.68459678493091, 24.776695021621258], [46.68435604045734, 24.77659322019719], [46.68378267957791, 24.776352229165944], [46.68340894579764, 24.77619468911341], [46.68283507344207, 24.77595276103825], [46.682455539179735, 24.775793180885458], [46.6820426493251, 24.77561934238953], [46.68183510991167, 24.775531786720794], [46.68155705854011, 24.77541454237029], [46.68106536978715, 24.775207181787902], [46.68075874935124, 24.775078207714206], [46.68031843171892, 24.77489313874213], [46.68021967732828, 24.77485093311069], [46.67992195364362, 24.77472561790082], [46.67960060181007, 24.77459040520636], [46.67945301478742, 24.774527716933463], [46.6791074854871, 24.77438268282502], [46.67879791784504, 24.774251855091507], [46.678674814938674, 24.774200045683454], [46.67864901378898, 24.77418956448285], [46.67863800823399, 24.774184785224417], [46.67861439768712, 24.77417483111755], [46.678416024878224, 24.774091374244094], [46.678129913477065, 24.773970399811525], [46.67773724204483, 24.773805426036933], [46.67757330150803, 24.773735835058506], [46.67748272655765, 24.773697780342157], [46.677443207174576, 24.773681165849027], [46.677415469185696, 24.773669450215476], [46.67739481050749, 24.773660732289237], [46.67736837346207, 24.773649570887756], [46.67731937032369, 24.773629262374914], [46.67701689877354, 24.773500868527243], [46.67682058608304, 24.773418232367824], [46.676586817855444, 24.773320051489794], [46.67637098145436, 24.773228992744365], [46.67616814231582, 24.773143518769597], [46.67595891895854, 24.773055087698687], [46.675659118092526, 24.77292904650449], [46.67552594097646, 24.772873343747698], [46.67546556179279, 24.7728480001196], [46.67542533970596, 24.77283071396371], [46.6753630851726, 24.77280452721782], [46.6750571551232, 24.77267508356241], [46.674744549760696, 24.772543879259526], [46.67456936274685, 24.77247008582043], [46.67454714404455, 24.77246093078012], [46.67450837579376, 24.772444744071638], [46.674356276197805, 24.772380712372332], [46.67433066969896, 24.772369576333944], [46.674184380921446, 24.77230745407897], [46.674054376376844, 24.772252777172667], [46.67394395872938, 24.77220612089085], [46.6738122019836, 24.772150405173395], [46.67373239898599, 24.772116826955077], [46.673675398334865, 24.772092793713718], [46.67360835867371, 24.77206471939457], [46.673502508097066, 24.7720201316955], [46.673470102587444, 24.77200674385934], [46.673435003966254, 24.771992001090446], [46.67334966709063, 24.771956266120863], [46.673293761428255, 24.77193312879215], [46.673071783172894, 24.771838858042372], [46.67274170088923, 24.771699658195036], [46.672630695477075, 24.771653051707656], [46.67258446937899, 24.771633756091816], [46.67250298586432, 24.77159943663425], [46.67240202906833, 24.771557505723276], [46.672104841163886, 24.77143141344974], [46.67175797209217, 24.77128538067263], [46.67143755042595, 24.771150562711593], [46.67115867651372, 24.771032517308548], [46.670954276987565, 24.770946829442636], [46.67067320442481, 24.77082824784076], [46.670598484234894, 24.77079698213972], [46.670569111935535, 24.770785049566072], [46.67046821457292, 24.770741701805452], [46.67033270587426, 24.770684644229753], [46.670081707926734, 24.770578450336707], [46.66984519815232, 24.770479623596994], [46.66965138841327, 24.77039786160318], [46.66934743164291, 24.770269891555465], [46.66906066758715, 24.77014868595835]]], [[[46.690413125838866, 24.778937643366834], [46.6904545878117, 24.778856009011918], [46.69045880413555, 24.778847649491155], [46.6904284160886, 24.778834883752463], [46.68988974923672, 24.77860780166804], [46.68971017392523, 24.778532155865804], [46.68953050324116, 24.77845668155875], [46.689321094943686, 24.778368461700907], [46.689315227259335, 24.77837910244472], [46.689290994699874, 24.77836868310518], [46.689295856989, 24.77835748399099], [46.689290040666, 24.778355045039532], [46.68927373583763, 24.7783835893901], [46.6892574320031, 24.778412134630763], [46.68926323501668, 24.77841497822367], [46.68925648101309, 24.77842604068042], [46.68931317512013, 24.778455938089238], [46.68936400250823, 24.778482740702323], [46.689372586408574, 24.778469587286807], [46.68939651199924, 24.77848172825615], [46.68938909748018, 24.77849549958863], [46.68948720106076, 24.778542604362073], [46.68966471060028, 24.778622356575628], [46.68980304498256, 24.778681259096142], [46.68981054756728, 24.778667640240286], [46.689839480195154, 24.77868233393475], [46.68983396730257, 24.778694342166055], [46.69002382434549, 24.778773741466466], [46.69020315566813, 24.778849879885595], [46.6902564246893, 24.778872564567077], [46.690262906724406, 24.778859754456416], [46.69028917372687, 24.778870832331883], [46.69028312255808, 24.778883473254318], [46.690413125838866, 24.778937643366834]]], [[[46.69017997512087, 24.779327859576572], [46.69007945366092, 24.779285644603224], [46.69007317054909, 24.779298760342897], [46.69004756338304, 24.779288068638696], [46.690053693571656, 24.779274760507494], [46.68982189778481, 24.779174417521396], [46.68963245965099, 24.779097144055793], [46.68962541021769, 24.77911129319653], [46.68959497728016, 24.779101054051477], [46.68960257711213, 24.779084608094315], [46.68946114064713, 24.779026261378455], [46.689279584217196, 24.778954568574438], [46.68917653766877, 24.7789178384669], [46.689170496116255, 24.778931563598974], [46.68914406855827, 24.778922499853902], [46.689149664155636, 24.778908705718855], [46.68909421860558, 24.7788904015892], [46.68902449813753, 24.77886862261056], [46.68901145865783, 24.77889950376284], [46.68899472427082, 24.778939135781698], [46.689056555725905, 24.77896513265749], [46.689236146870776, 24.77904075828631], [46.689415715813006, 24.7791165545844], [46.68959533072131, 24.77919200523819], [46.689774998547755, 24.77926747764102], [46.68995465534209, 24.779343142256007], [46.690134264521674, 24.779418561599712], [46.69025016433515, 24.779467137020642], [46.690258422553825, 24.779460313709297], [46.69029553321597, 24.779376400903132], [46.69017997512087, 24.779327859576572]]], [[[46.69240400225626, 24.77966659306073], [46.69214933327078, 24.779559440154365], [46.69210366631553, 24.779649465970994], [46.69235790124612, 24.779755593670806], [46.692545063686495, 24.779818673473706], [46.69273135479831, 24.779881006275073], [46.69279590066806, 24.779902597310365], [46.69280947516661, 24.77987272736025], [46.692823048682506, 24.779842858323043], [46.69240400225626, 24.77966659306073]]], [[[46.69462908518292, 24.781200993647698], [46.69456239680301, 24.781173326056535], [46.694553931592715, 24.781189145507675], [46.69453619489253, 24.781181883116894], [46.69454373723314, 24.78116568677987], [46.694414995158716, 24.781111468248724], [46.694399693995706, 24.781139064565824], [46.69438439380276, 24.7811666599677], [46.69445899340449, 24.78120471056144], [46.69459504349506, 24.7812677748708], [46.69462908518292, 24.781200993647698]]], [[[46.69580470712799, 24.781126398184096], [46.69404657659181, 24.780387108811848], [46.694035652593705, 24.78040844646376], [46.694024729568596, 24.780429783201086], [46.69429686410579, 24.78054424339869], [46.69429929282619, 24.780554937582774], [46.69433323682273, 24.780568422470004], [46.69432553280045, 24.780584874336014], [46.695509950890994, 24.781083125345326], [46.69552147412286, 24.781062234052264], [46.69574751360364, 24.781153742418688], [46.69574323736277, 24.78116254696909], [46.69577769195984, 24.781176540369376], [46.69576843438851, 24.781192042018017], [46.69648951817363, 24.781495499058288], [46.69661097043178, 24.781546486622304], [46.69664812096363, 24.78148956618122], [46.69580470712799, 24.781126398184096]]], [[[46.69828646576479, 24.782740901130115], [46.6979258065579, 24.782589175384093], [46.69791739317203, 24.782605724848285], [46.697899186584515, 24.782598117888732], [46.6979078506394, 24.782581384103693], [46.697543199403896, 24.782428679718592], [46.6974766065553, 24.78240071174489], [46.69746829636747, 24.782417072217434], [46.69745006828093, 24.782409262297264], [46.69745827245891, 24.782392887678963], [46.69718401579657, 24.78227741208478], [46.697027537650115, 24.782211392892368], [46.69701915025976, 24.782228043138186], [46.697001008264074, 24.782220523813873], [46.697009723953336, 24.782204161476017], [46.69657815983404, 24.782022387623204], [46.69656703795141, 24.782043695183035], [46.69579667420698, 24.781719245323565], [46.69580731385397, 24.781697739229116], [46.69526757159784, 24.781470756526716], [46.69525327599846, 24.781500363980584], [46.69497449833193, 24.781382458762632], [46.69498904312267, 24.781353500388587], [46.69487964683903, 24.781307738050824], [46.69487570294797, 24.781315096017313], [46.694706136412, 24.78124355151239], [46.69467630613684, 24.78130155243723], [46.69589349331997, 24.78181424341267], [46.69661206068615, 24.782116354007616], [46.698256772181516, 24.78280724282824], [46.698271618970715, 24.782774071528415], [46.69828646576479, 24.782740901130115]]], [[[46.7017172232553, 24.783586480773046], [46.701384338970385, 24.783446570779137], [46.70120464471004, 24.7833711655821], [46.701024937456765, 24.78329573502635], [46.700845361713775, 24.783220069808365], [46.700665690869286, 24.78314459504926], [46.7004860770088, 24.78306900475173], [46.70030661070681, 24.782993123631982], [46.69994738499736, 24.78284194098312], [46.699588176630016, 24.78269073556561], [46.69922892684893, 24.78253962271193], [46.69886977549608, 24.782388268576078], [46.69851049436472, 24.782237199416677], [46.69850822156964, 24.78223624378127], [46.698492196075925, 24.782266365920204], [46.69847616959831, 24.782296488971664], [46.69865539303446, 24.78238170185356], [46.698829803764724, 24.78246483473432], [46.699006427845745, 24.782549116015797], [46.69902365088022, 24.78255733441539], [46.69903307915398, 24.782541464977943], [46.699050559089386, 24.78255010210141], [46.69904126433708, 24.78256589959987], [46.69918382057161, 24.78262911233007], [46.699464147068184, 24.78274698729572], [46.69947246008573, 24.782730780179794], [46.69949100570421, 24.78273858353172], [46.699482934377784, 24.78275481860209], [46.6999102329072, 24.782934802987885], [46.69992170562929, 24.782912644320092], [46.700534460801094, 24.78317089170698], [46.70054319389083, 24.78320132412893], [46.70081429329382, 24.78331539183087], [46.70082255876201, 24.783299624887558], [46.70084096893388, 24.78330683912287], [46.700831821617, 24.783322991684443], [46.700979723071846, 24.78338548548921], [46.70120966684747, 24.783482564864926], [46.70121814966176, 24.783466421640828], [46.70123646278566, 24.783473695615275], [46.70122787991836, 24.7834900440274], [46.70133958195965, 24.783535397014198], [46.7015230158347, 24.783603405600783], [46.70168476747676, 24.783656759417855], [46.70170099586476, 24.783621620090535], [46.7017172232553, 24.783586480773046]]], [[[46.70131152521655, 24.78402395574372], [46.701026086419546, 24.783894352809703], [46.70101941955218, 24.783906741995697], [46.701001755119584, 24.783898523440048], [46.701007843879495, 24.78388623923845], [46.70017144765717, 24.783534558003453], [46.70016288206589, 24.783550588351883], [46.70014427558125, 24.783543047616316], [46.70015238535662, 24.783526371473158], [46.69987829970581, 24.783411097737886], [46.69972411159569, 24.78334611997904], [46.69971550148544, 24.78336287852765], [46.69969703111611, 24.783354944339997], [46.69970533507555, 24.78333821725822], [46.699533586317116, 24.783266224736145], [46.699518269182015, 24.783261511393917], [46.698841476487594, 24.783053434457024], [46.69882946845473, 24.783077984525114], [46.698935177440426, 24.78312255958497], [46.69911466246479, 24.783198404243873], [46.69929431621475, 24.78327391450336], [46.69965352538891, 24.78342514854039], [46.69983303126943, 24.783500937887847], [46.70001269187962, 24.78357623679658], [46.70037192726056, 24.783727601453457], [46.70055156318609, 24.78380314735337], [46.70091086747622, 24.78395417851756], [46.70109053678025, 24.784029660159597], [46.70127023710841, 24.78410508073051], [46.70145493936462, 24.78418292711998], [46.7014690517408, 24.784158031515293], [46.701483164099265, 24.78413313500678], [46.70148025566018, 24.784131405658282], [46.701489861725236, 24.784116115507604], [46.70131152521655, 24.78402395574372]]], [[[46.70376768915246, 24.784765329226726], [46.686639398140365, 24.777556794643807], [46.68660849957961, 24.777617931011385], [46.703735815859595, 24.784827212129684], [46.70376768915246, 24.784765329226726]]], [[[46.70765385690928, 24.786084827575493], [46.70739949296215, 24.785977890667947], [46.70724064215807, 24.785910981534645], [46.707221947651284, 24.785944825919643], [46.70720325412363, 24.78597867029142], [46.707322470609896, 24.786043950492928], [46.707374183238706, 24.786071999685674], [46.70739272477814, 24.786080518940185], [46.707428477759834, 24.78609575784144], [46.70743696500826, 24.78607926483358], [46.70745539691541, 24.78608772212972], [46.70744718790293, 24.78610431128023], [46.7077232108591, 24.786220259912376], [46.70805586851966, 24.786361085869682], [46.708098928706306, 24.786271706564335], [46.70787214001421, 24.786176752901657], [46.70765385690928, 24.786084827575493]]], [[[46.70848054535732, 24.78643211946428], [46.70822623823153, 24.786324881819855], [46.70817889020023, 24.786413131849937], [46.70846524477253, 24.786533791495213], [46.70878572404633, 24.786669165995914], [46.70894647796692, 24.786716480100754], [46.70896261056594, 24.786679168849933], [46.70897874315592, 24.786641857597694], [46.708972281236996, 24.786639127968332], [46.70873556275179, 24.786539555304394], [46.70848054535732, 24.78643211946428]]], [[[46.70745609484341, 24.78660902414717], [46.70738154072081, 24.786579140920285], [46.70737318359098, 24.786595749814808], [46.70732357582402, 24.78657626294463], [46.70733155077406, 24.78655918891854], [46.70727124514486, 24.78653486729936], [46.70724404945839, 24.786524875757145], [46.70715478779627, 24.786492009162576], [46.70708191517825, 24.78646718977569], [46.707000841523914, 24.78644075746269], [46.70698812549105, 24.786436889229254], [46.70697581041884, 24.786464414745964], [46.70696349633035, 24.786491940250567], [46.70697978087821, 24.78649878699234], [46.70719848141264, 24.786590623656696], [46.70743457519212, 24.78668935542274], [46.70767076387182, 24.786788563335893], [46.70770520365489, 24.78671451757534], [46.70751279843856, 24.78663246585532], [46.70745609484341, 24.78660902414717]]], [[[46.707971885723474, 24.78681916897317], [46.70785616458257, 24.7867701634668], [46.70781207528749, 24.78685822632892], [46.7079299759227, 24.786908074653933], [46.707971885723474, 24.78681916897317]]], [[[46.71158036287334, 24.787845802295926], [46.71158908306569, 24.787830462085772], [46.7115968179195, 24.787833549923803], [46.711603811292875, 24.787820586861134], [46.71162038181149, 24.78778986853469], [46.71160302253228, 24.787782209384638], [46.71138427953256, 24.787690386209718], [46.71115577147676, 24.78759431348419], [46.710838424372234, 24.78746094445957], [46.71051119418834, 24.7873232735499], [46.71032988040664, 24.787246952128175], [46.710122640355344, 24.787160182560847], [46.71011802446824, 24.787168316917374], [46.71010051957241, 24.787160988797044], [46.710105008039896, 24.78715243335278], [46.71002895297839, 24.787120334031055], [46.70999130205194, 24.787104701241827], [46.70998314101484, 24.787125490132215], [46.70997497996284, 24.787146278119543], [46.71001518043827, 24.787163201779588], [46.71003182196886, 24.78713157993012], [46.71005223819779, 24.787140042206065], [46.710034539782306, 24.787175801357957], [46.7100995270644, 24.787202497053897], [46.71009125024408, 24.787219168368924], [46.71023665117608, 24.787280337692902], [46.7102446370491, 24.78726552961246], [46.710263471513244, 24.78727374719842], [46.71025631466331, 24.78728842843225], [46.710474671036316, 24.787380364285397], [46.71068374221586, 24.78746806312917], [46.71069200994746, 24.78745145508945], [46.710711192915326, 24.787459840178308], [46.710703538890144, 24.787476486347234], [46.71089883027518, 24.787558898075286], [46.71113057448067, 24.787656295733893], [46.71113957700592, 24.78763990498813], [46.71115769081565, 24.78764748965708], [46.7111540883014, 24.787655954644368], [46.71135793867098, 24.78774078689321], [46.71136586369738, 24.78772443554298], [46.71139284133566, 24.78773651443632], [46.711385309002765, 24.78775265363657], [46.71145736146613, 24.787784621949317], [46.71145367032299, 24.787792392745253], [46.71158036287334, 24.787845802295926]]], [[[46.71289531428195, 24.788888561346937], [46.71275316244346, 24.78882871187636], [46.71274431914582, 24.788845164090176], [46.71271649395196, 24.788833329904982], [46.712724683119575, 24.788816776834697], [46.71252086863994, 24.78873042934037], [46.71230397701245, 24.788639563341743], [46.712295823536394, 24.78865655838987], [46.71227014213245, 24.788644546099952], [46.71227788874673, 24.78862889195825], [46.71206023685362, 24.788536652895235], [46.71185648058672, 24.78845102337577], [46.711848720106474, 24.788466246986584], [46.71182069179894, 24.788456175550085], [46.71182892344719, 24.788439107401327], [46.711635889448914, 24.788358458848727], [46.71140598358961, 24.78826181750032], [46.71139769452147, 24.788278308446802], [46.7113680133535, 24.78826598058699], [46.71137603518692, 24.788249474640615], [46.71120353438138, 24.788176815849827], [46.71095701638569, 24.788073149786584], [46.71094900103124, 24.788088689565598], [46.71092294401234, 24.788078116893765], [46.71093100125792, 24.788062025885168], [46.7108499191186, 24.788027894342225], [46.71081060878305, 24.788108191037082], [46.71080617017469, 24.788118793644696], [46.7109365514344, 24.788173328980562], [46.71110033163464, 24.788242716474556], [46.71131812464529, 24.788334729658846], [46.71154169609463, 24.7884286410719], [46.71177796119766, 24.788527623729838], [46.71201481181917, 24.78862715817623], [46.71225090100255, 24.788726169151023], [46.71246930659746, 24.78881780339419], [46.712706270577655, 24.788917376929415], [46.712906119773436, 24.789002157010582], [46.71293434250614, 24.789012831835063], [46.71311191936769, 24.789074569781903], [46.71317849328392, 24.789097711158945], [46.71319055564871, 24.789071601976413], [46.713197495904765, 24.789056580004164], [46.7129945195768, 24.788963980238666], [46.713007748074645, 24.78893917139838], [46.71289531428195, 24.788888561346937]]], [[[46.71662519943464, 24.78985938812198], [46.71417372041973, 24.788828180774097], [46.71404948686797, 24.788776021108966], [46.71381630037783, 24.78867804247693], [46.713580251563734, 24.788578517118516], [46.71329027841618, 24.788456388704557], [46.71307220492439, 24.788364659761143], [46.71283603685487, 24.788265369284893], [46.71281348339277, 24.78825585383945], [46.71279907798683, 24.78828188598101], [46.712784700545186, 24.78830786633764], [46.71295154072687, 24.78839178997447], [46.712965750178284, 24.78838583992064], [46.71301890297893, 24.788410575092254], [46.713018828533016, 24.788425388451046], [46.71328476113778, 24.78855980082947], [46.71332306043827, 24.78857815109507], [46.71334132534505, 24.78858663662837], [46.71343156578583, 24.7886243004839], [46.71372007722541, 24.78874574651569], [46.7138897731733, 24.7888168814871], [46.714104329986206, 24.788907018869903], [46.71427725844197, 24.78897973610528], [46.71428553321443, 24.788963669527774], [46.71430117669643, 24.7889706681451], [46.71429295347799, 24.788986887620855], [46.71439041712893, 24.78902763720097], [46.714400751867565, 24.789008179309924], [46.71455539155224, 24.789072750565428], [46.714559735384064, 24.789064267983377], [46.71458070866763, 24.78907263203994], [46.714576818222284, 24.789081001083346], [46.71467653030611, 24.789123854579763], [46.71522052493553, 24.789329624300752], [46.71535156447303, 24.789379594920604], [46.71571576408147, 24.78952801383292], [46.715770754226185, 24.789549639096286], [46.715871123393185, 24.78959016475219], [46.715875373899756, 24.789582811793473], [46.71590196795058, 24.789593548956226], [46.715898366960275, 24.789602104314113], [46.71597151915508, 24.789631899878916], [46.71595921382187, 24.789656915060405], [46.716371549777456, 24.78982971758743], [46.71662498775559, 24.78993619318947], [46.716878616584985, 24.790042133459007], [46.71703310790381, 24.790105087598892], [46.71713645909194, 24.790145921239613], [46.71726364584335, 24.79019466127343], [46.71735601833464, 24.790228262357168], [46.717449370165355, 24.790261156931816], [46.71750573724118, 24.790280743296908], [46.71757734886627, 24.79030404512865], [46.71760870891273, 24.79023942793776], [46.717476758841975, 24.79019614384258], [46.71732747805917, 24.79014307910085], [46.71718449740824, 24.790088430504106], [46.71705115620318, 24.79003617662195], [46.71690489431506, 24.789976147274405], [46.71675954123343, 24.78991602880138], [46.71662519943464, 24.78985938812198]]], [[[46.70514460449727, 24.78535410897902], [46.704681188237664, 24.785159110710037], [46.704650182066466, 24.785221167196948], [46.707100086765045, 24.78625212663143], [46.70944628873551, 24.787239391112514], [46.71201259224719, 24.788319211354775], [46.712887340435586, 24.788687263561577], [46.71439868572892, 24.789323147789137], [46.717147516428895, 24.79047963318208], [46.717435217930394, 24.79060067106998], [46.71743693029412, 24.790597250306675], [46.71743869944694, 24.79059371603285], [46.7174427497939, 24.790585622268427], [46.717446801129235, 24.790577528492562], [46.71745085246407, 24.79056943471661], [46.7174549037984, 24.790561340940567], [46.71745853547351, 24.790554086232614], [46.717462166171785, 24.79054683243865], [46.71746439349227, 24.790542382813342], [46.717465796857226, 24.790539577741903], [46.71746649277432, 24.790538187461078], [46.71665379834969, 24.790196315400273], [46.7159041611156, 24.7898809633933], [46.71475661594722, 24.789398212255172], [46.714291647157715, 24.789202604748915], [46.71318962211416, 24.788738984982796], [46.71268268522736, 24.788525714912733], [46.71133638405112, 24.78795930627081], [46.71054697068985, 24.78762718040064], [46.70937415187871, 24.787133735715734], [46.709082881573416, 24.787011186558164], [46.70828013730826, 24.786673433758104], [46.70775885053818, 24.78645410096168], [46.706323755702854, 24.785850266329387], [46.70514460449727, 24.78535410897902]]], [[[46.716954635140524, 24.790648594739896], [46.71687479516668, 24.790610813799407], [46.71686456664208, 24.790628627405145], [46.71682681573681, 24.790612835959234], [46.71683636635012, 24.790596068434052], [46.716747159782265, 24.79055537027224], [46.716712843126984, 24.79053615363385], [46.71646143981215, 24.790423109097144], [46.716370961370934, 24.790383400388272], [46.716306518474134, 24.7903555095245], [46.716117595446825, 24.790275027537103], [46.715841711203815, 24.79015884078182], [46.71553635588476, 24.79003052272261], [46.71512276447926, 24.789857018996333], [46.71511375850328, 24.789873130111836], [46.71508755602273, 24.78986209940241], [46.71509577496419, 24.789845572959646], [46.714847202031, 24.789741088464922], [46.71469126969234, 24.789687737897815], [46.71467868151851, 24.789715291486594], [46.71466598869359, 24.78974307469987], [46.71468179996332, 24.78974975173283], [46.71486398039607, 24.789826149745792], [46.71506322126936, 24.789909784426175], [46.71526363094888, 24.789993384665337], [46.71546313870237, 24.790077545713935], [46.71566352130208, 24.790161512268092], [46.71584489916208, 24.790238078942988], [46.71602611219983, 24.790314583173924], [46.71620773434575, 24.79039162149641], [46.716361682107575, 24.79045768481915], [46.716496365130084, 24.79051708818849], [46.7166224209183, 24.790573395143532], [46.71674748718995, 24.79063001760653], [46.71684227591698, 24.790674454608013], [46.716943416416946, 24.790722281172346], [46.71703172030322, 24.79076528646707], [46.71711013193242, 24.790804479543848], [46.71718340294755, 24.79084125228855], [46.7172585497806, 24.79088022181917], [46.717287711118054, 24.790895366858994], [46.717288265553556, 24.79089425989794], [46.717292349609586, 24.790886098937836], [46.71729643465399, 24.790877937966314], [46.717300519685445, 24.790869776091952], [46.717304604728824, 24.790861615120228], [46.71730868977169, 24.790853454148426], [46.71731277481406, 24.79084529317652], [46.71731685985592, 24.790837132204523], [46.717319695518576, 24.790831467559798], [46.717318475002806, 24.790830817054918], [46.717230817701584, 24.790785578039223], [46.717144150505675, 24.790741131161514], [46.71705790047567, 24.79069896370445], [46.716954635140524, 24.790648594739896]]]]}, "properties": {"OBJECTID": 1, "layer": "PLANTABLE_AREA", "projects_name": "Northern Ring Rd"}}]}