{"type": "FeatureCollection", "features": [{"type": "Feature", "id": 1, "geometry": {"type": "MultiPolygon", "coordinates": [[[[46.61209652366193, 24.82996885461019], [46.612079815246126, 24.829962291982927], [46.6120532540039, 24.830044760120725], [46.61199358372722, 24.830208930918168], [46.611984005337256, 24.830235040356083], [46.6117933368008, 24.830617911352537], [46.611685420278235, 24.830834609160537], [46.61149580590189, 24.83121535838492], [46.611432643292574, 24.831342189418738], [46.61142686125616, 24.831353799807946], [46.611380546946975, 24.8314527510068], [46.61134642179548, 24.831529767630084], [46.61143179309742, 24.83155967031941], [46.61145112368008, 24.831518629299786], [46.61147202865837, 24.83147424864296], [46.611554406234674, 24.831299360494526], [46.61159193296065, 24.831219689654038], [46.612043746581094, 24.830260470806913], [46.612076906573435, 24.830161774162953], [46.6121004314356, 24.830095273093406], [46.61211581116706, 24.830051797963954], [46.612138217435216, 24.82998846186949], [46.612134743367754, 24.829986828077697], [46.612126855550564, 24.82998311918053], [46.612118967710444, 24.829979408477378], [46.61211107989414, 24.82997569957932], [46.61210319207831, 24.82997199068081], [46.61209652366193, 24.82996885461019]]], [[[46.612555562083315, 24.830186487783557], [46.612533794147865, 24.83017520437373], [46.612498591060906, 24.830234230002574], [46.61248033155932, 24.83026160327548], [46.612457645108286, 24.83030192398891], [46.612355976811884, 24.83050570389846], [46.612309642303636, 24.830605384209374], [46.61226927256434, 24.830674118391542], [46.612175117014054, 24.83083443025889], [46.612061725194, 24.831054597612958], [46.61201019007828, 24.831154659878813], [46.611847157819774, 24.83147120856183], [46.61171707021779, 24.831723790953607], [46.611646864257395, 24.83186010440124], [46.61115072999138, 24.832883647436446], [46.611111785513124, 24.83298776133607], [46.61115483067865, 24.83300958261005], [46.61146422496821, 24.832401749530444], [46.61223225427335, 24.830849603810435], [46.61224074114199, 24.830834247894444], [46.612297246158256, 24.8307320137519], [46.61243788377392, 24.830477555548892], [46.612565480557805, 24.830276839284313], [46.612582114916734, 24.830249345391792], [46.61260888910337, 24.83021686736117], [46.61261158645914, 24.83021261541198], [46.61259377090684, 24.830204451313325], [46.61258677056577, 24.830201585201266], [46.612579445011434, 24.830198359633034], [46.61256988825145, 24.83019344082672], [46.612555562083315, 24.830186487783557]]], [[[46.6109420430578, 24.8324307385081], [46.61086163489886, 24.83239815012429], [46.61075076352772, 24.832628190591752], [46.610707098600834, 24.832718789246627], [46.610490873472976, 24.833167417697375], [46.61046838563278, 24.83321407614293], [46.610449009978936, 24.833254276938746], [46.61051252699571, 24.833276420444648], [46.6105405734485, 24.833222894250632], [46.610573953574054, 24.833159187295028], [46.610646243464906, 24.83302122211102], [46.61073038951897, 24.832848729651666], [46.61082373434677, 24.8326560241747], [46.610900000052986, 24.832510795565355], [46.6109420430578, 24.8324307385081]]], [[[46.61005317008006, 24.834161049604095], [46.61002236055931, 24.834147480512534], [46.6094789825892, 24.835200301077602], [46.60946197634463, 24.835236474603477], [46.60951051662972, 24.83525319807846], [46.609515872455454, 24.83525504370412], [46.609519969076274, 24.835256455054115], [46.609520854369315, 24.835254600901113], [46.60952186973549, 24.835252476283955], [46.6095429213661, 24.835208398562166], [46.60955617679965, 24.835180647017168], [46.60976469506887, 24.834734626368455], [46.61005317008006, 24.834161049604095]]], [[[46.60861548488201, 24.83712748250251], [46.60856046389559, 24.837102393658945], [46.60782067099195, 24.838563350375892], [46.607872673517846, 24.83859462609267], [46.60787384000414, 24.83859232379443], [46.60792537038951, 24.838490579844066], [46.60794209948451, 24.83845754882767], [46.608501292589786, 24.83735343642386], [46.60855652248277, 24.837245952471598], [46.60861548488201, 24.83712748250251]]], [[[46.6103906352527, 24.834402955578163], [46.61034799240167, 24.834386334063815], [46.6098177987883, 24.83544117974462], [46.609741932483956, 24.835571383878758], [46.6080398690486, 24.838851014008572], [46.607763191236266, 24.839401177416008], [46.60747050639261, 24.84009721848082], [46.6075382837234, 24.840119560163934], [46.60905432845609, 24.837117894070357], [46.60986428121955, 24.835527431168433], [46.6103906352527, 24.834402955578163]]], [[[46.6070410529439, 24.841047712779435], [46.606988940036665, 24.841028106140666], [46.60637848816933, 24.84225769401735], [46.606275102449956, 24.842499506119257], [46.606324687906906, 24.842516210254704], [46.6063286531578, 24.842517546349047], [46.60677880413161, 24.84158082980169], [46.6070410529439, 24.841047712779435]]], [[[46.60722609309289, 24.839754865958405], [46.60718171726363, 24.839742845352333], [46.60676356148155, 24.840519581260327], [46.60663119547216, 24.840765452223472], [46.60653537681381, 24.84094343676971], [46.60634212905802, 24.841336438185873], [46.606230484201284, 24.841563484582014], [46.605873158498866, 24.842290156016542], [46.60578753296177, 24.84246428717366], [46.60550736338586, 24.84303404295632], [46.60549618897638, 24.84306086079928], [46.60549256782501, 24.84306955127151], [46.60548946303621, 24.843077003740383], [46.60549238473795, 24.843078136180242], [46.60553604419971, 24.843095058643847], [46.60553685169251, 24.84309537139821], [46.60554385279645, 24.843076782258414], [46.60583654742132, 24.842508972075972], [46.60694154917439, 24.84031189156449], [46.60722609309289, 24.839754865958405]]], [[[46.60548459946172, 24.84408500259391], [46.605428416465934, 24.84406123711052], [46.60506324310307, 24.844775883327674], [46.604946197676036, 24.845004941673007], [46.60459803435843, 24.84568628678861], [46.60447985514997, 24.845917557348074], [46.60436134547259, 24.84614947604224], [46.60418707507911, 24.84657185373715], [46.60410335481403, 24.846762828805804], [46.604102758855426, 24.846764188647736], [46.60416182955069, 24.846780303124227], [46.604335422733826, 24.846433054679316], [46.604407715984365, 24.846288442287367], [46.60470696655503, 24.8456898290154], [46.60487497566266, 24.84535374562965], [46.6052296348902, 24.844644280741083], [46.605338800477604, 24.84441095128869], [46.60548459946172, 24.84408500259391]]], [[[46.60488039308348, 24.844420246085768], [46.60481159889322, 24.84439846677703], [46.604779373412235, 24.844467899908878], [46.604221708601074, 24.84558329687282], [46.60411543455645, 24.845795854096462], [46.60357356976564, 24.846879625039627], [46.60357291091153, 24.846880942215687], [46.603619500169735, 24.846899531188885], [46.603641821569965, 24.846908437938904], [46.60364713783957, 24.846910558661428], [46.603660143779315, 24.8468842964256], [46.60366980131283, 24.846864795814284], [46.60409252027231, 24.846011210905317], [46.60420298803785, 24.8457881431814], [46.60488039308348, 24.844420246085768]]], [[[46.603348616935236, 24.848339381728138], [46.60329025402719, 24.848316585144875], [46.601124975454454, 24.852663408367704], [46.601049033139375, 24.85286640731144], [46.601082736864996, 24.852880501435298], [46.601500424761134, 24.852081114646584], [46.603348616935236, 24.848339381728138]]], [[[46.603183274358145, 24.847710820973354], [46.603140416075355, 24.84769689683643], [46.60240822233671, 24.84914682232513], [46.60228553088297, 24.84938977899242], [46.60208558275422, 24.849785717718433], [46.60107558003748, 24.851785694841208], [46.60050562781981, 24.852914268032336], [46.600316362691125, 24.853289029202614], [46.599649807656284, 24.85460885152243], [46.59942014477649, 24.855063592329856], [46.5989416104844, 24.856011096516426], [46.59888480460278, 24.856123692855125], [46.59895107909128, 24.85614470346292], [46.59913873040278, 24.855788875904906], [46.5994959136728, 24.85505105681409], [46.600869336480095, 24.852357856724957], [46.60292135729954, 24.84831409981307], [46.603183274358145, 24.847710820973354]]], [[[46.600401659683854, 24.854091793445598], [46.60035893678498, 24.854071703063422], [46.6000261843152, 24.854734268518005], [46.59997635547, 24.854833484485685], [46.59981778053531, 24.855149231619546], [46.59974360604425, 24.85529692301653], [46.59917633682009, 24.856426421892806], [46.59903574628817, 24.856706351901913], [46.59883722532434, 24.857101623230154], [46.598764550574685, 24.857227747781174], [46.598792474450136, 24.857242101984866], [46.59883593671969, 24.85726444300645], [46.59884119523617, 24.85726458264128], [46.5988417145151, 24.857263562225352], [46.59884419690507, 24.857258675352835], [46.59943973462865, 24.856086754692328], [46.600139197977796, 24.854666020391175], [46.600401659683854, 24.854091793445598]]], [[[46.59843446998248, 24.85718735578642], [46.59835296318812, 24.857156800030758], [46.598058902488724, 24.857792561216176], [46.59780755920675, 24.85829404278406], [46.5974271690433, 24.85904325912522], [46.59719410372064, 24.859523304501703], [46.59720272679108, 24.85952704688485], [46.59724153805267, 24.85954388887723], [46.59738206543074, 24.859251571483313], [46.597560771975054, 24.8588907733928], [46.59770388200327, 24.858613487535695], [46.597985695629085, 24.858062003564374], [46.598361727260375, 24.857319929380996], [46.59843446998248, 24.85718735578642]]], [[[46.59818346132984, 24.858502954609627], [46.59812706724541, 24.858485976865307], [46.597545603183846, 24.85963844469643], [46.5975392899277, 24.859650956870592], [46.5975301250185, 24.85966912279636], [46.59753224571751, 24.859670043638722], [46.597609238485695, 24.8597034542726], [46.59761254143719, 24.859704887952695], [46.59803024910482, 24.85887404718458], [46.59812057075217, 24.858676837686623], [46.59818346132984, 24.858502954609627]]]]}, "properties": {"OBJECTID": 1, "layer": "PLANTABLE_AREA", "projects_name": "Qassim_Rd"}}]}